{"type":"FeatureCollection","features":[{"type":"Feature","geometry":{"type":"Point","coordinates":[-149.9248664391855,61.13890791685125]},"id":"globalwatershedpoint","properties":{}},{"type":"Feature","geometry":{"type":"Polygon","coordinates":[[[-149.97077197007258,61.158929686696695],[-149.96909712814403,61.158880885935886],[-149.96906320068845,61.15914861759151],[-149.9618055508966,61.15893691177754],[-149.96177156208478,61.15920464164661],[-149.95730532664373,61.15907417099338],[-149.95727129985445,61.15934189976083],[-149.95336334114683,61.15922761881866],[-149.95332928105532,61.159495346621085],[-149.95277099885425,61.159479011632],[-149.95273693351433,61.15974673929514],[-149.94938722428367,61.15964868127118],[-149.94942131767772,61.15938095443492],[-149.94328028912724,61.15920097247686],[-149.94324614430187,61.159468697795475],[-149.94101304152525,61.15940318174129],[-149.9410472050525,61.15913545697513],[-149.93881413016769,61.15906990546474],[-149.9387799479388,61.15933762967815],[-149.9348720562914,61.159222826921635],[-149.93483784075997,61.15949055016555],[-149.93260475377093,61.15942489852521],[-149.93257051896262,61.159692621213935],[-149.92866260616702,61.159577643228744],[-149.92862833805532,61.159845364946335],[-149.92807006242734,61.159828930379206],[-149.92803578906404,61.16009665195675],[-149.9274775093369,61.160080215000434],[-149.9274432307219,61.16034793643781],[-149.9268849468956,61.16033149709237],[-149.9268506630287,61.16059921838949],[-149.92629237510326,61.160582776654834],[-149.92625808598433,61.160850497811886],[-149.9256997939598,61.16083405368794],[-149.9256654995887,61.16110177470477],[-149.92510720346507,61.16108532819153],[-149.9250729038416,61.161353049068175],[-149.92451460361897,61.16133660016562],[-149.92444599329022,61.16187204163676],[-149.9238876842927,61.161855590206045],[-149.92385337358718,61.162123310800624],[-149.92329506049063,61.16210685698064],[-149.92326074453217,61.16237457743487],[-149.92270242733662,61.162358121225374],[-149.92266810612512,61.162625841539345],[-149.92210978483055,61.16260938294033],[-149.9220754583658,61.16287710311399],[-149.9215171329723,61.162860642125565],[-149.92148280125417,61.16312836215884],[-149.92092447176177,61.16311189878075],[-149.9208901347901,61.16337961867378],[-149.92033180119878,61.163363152905994],[-149.92029745897344,61.163630872658636],[-149.91973912128321,61.16361440450128],[-149.91970477380406,61.163882124113584],[-149.919146432015,61.163865653566496],[-149.9191120792818,61.164133373038396],[-149.91855373339394,61.1641169001016],[-149.9185193754066,61.16438461943306],[-149.91796102541994,61.16436814410659],[-149.9179266621783,61.164635863297605],[-149.91736830809288,61.16461938558131],[-149.91733393959677,61.16488710463182],[-149.91677558141265,61.16487062452571],[-149.91674120766191,61.16513834343577],[-149.91618284537907,61.16512186093983],[-149.91614846637353,61.16538957970937],[-149.91503173418874,61.16535660768678],[-149.91499734525146,61.16562432617681],[-149.91443897534958,61.16560783665013],[-149.91440458115713,61.16587555499958],[-149.91384620715675,61.16585906308293],[-149.913811807709,61.166126781291766],[-149.91325342961014,61.16611028698504],[-149.9132190249069,61.166378005053296],[-149.9121022610909,61.166345009408936],[-149.912067846455,61.16661272719742],[-149.911509460738,61.16659622585954],[-149.9114750408462,61.16686394350744],[-149.91091665103087,61.16684743977952],[-149.9108822258831,61.167115157286666],[-149.90976543863488,61.16708214279944],[-149.9097310035537,61.16734986002675],[-149.90917260612096,61.16733334926741],[-149.9091381657834,61.16760106635397],[-149.9085797642525,61.16758455320435],[-149.90854531865844,61.16785227015016],[-149.90798691302942,61.16783575461025],[-149.90795246217868,61.168103471415264],[-149.90739405245162,61.16808695348494],[-149.90735959634398,61.16835467014925],[-149.90680118251888,61.16833814982859],[-149.9067667211543,61.16860586635208],[-149.90620830323115,61.168589343640974],[-149.90617383660938,61.16885706002361],[-149.90561541458828,61.16884053492209],[-149.9055809427092,61.1691082511639],[-149.90446409105093,61.16907519392879],[-149.90449857228532,61.16880747796572],[-149.9039401520036,61.168790946110974],[-149.90397463733566,61.168523230286],[-149.90341622231142,61.168506696319554],[-149.90345071174104,61.16823898063263],[-149.90233389278757,61.16820590622574],[-149.9023683909919,61.16793819081631],[-149.9012515837137,61.16790510768424],[-149.90128609069242,61.16763739255242],[-149.89905250180908,61.16757119983478],[-149.89901797612148,61.16783891440838],[-149.89790117580867,61.1678058042645],[-149.89786664018598,61.16807351855729],[-149.8973082362235,61.168056959969235],[-149.8972736953427,61.16832467412092],[-149.89671528728377,61.16830811314209],[-149.89668074114476,61.16857582715256],[-149.8961223289894,61.16855926378308],[-149.89605322561357,61.16909469152006],[-149.89549480468435,61.169078125620146],[-149.895425689629,61.16961355307174],[-149.89486725992572,61.16959698464126],[-149.89479813319016,61.17013241180752],[-149.89423969471267,61.170115840846364],[-149.8942051257951,61.170383554287426],[-149.89364668322114,61.17036698093536],[-149.89357753428598,61.17090240753371],[-149.8930190829376,61.17088583165075],[-149.89298450291972,61.171153544807915],[-149.89242604747483,61.17113696653398],[-149.89239146219728,61.1714046795499],[-149.89183300265591,61.17138809888489],[-149.8917984121185,61.1716558117594],[-149.8906814854248,61.171622643395956],[-149.89064688494915,61.17189035598934],[-149.89008841779693,61.17187376829082],[-149.890053812061,61.17214148074283],[-149.88893687014613,61.17210829831216],[-149.8889022544715,61.17237601048279],[-149.88666835891527,61.17230961804659],[-149.88663372394487,61.172577329655645],[-149.88495829435877,61.172527511270076],[-149.8849236447706,61.1727952224574],[-149.8832482063942,61.172745383390115],[-149.88321354218792,61.17301309415551],[-149.88097961380154,61.17294660998719],[-149.88094493029834,61.17321432019032],[-149.88038644498144,61.17319769337974],[-149.88035175621636,61.173465403441135],[-149.87979326680443,61.17344877423901],[-149.87975857277732,61.17371648415858],[-149.8792000792703,61.17369985256489],[-149.87913068010812,61.174235272119304],[-149.87857217782738,61.17421863799354],[-149.87850276697296,61.17475405726145],[-149.87794425591835,61.174737420603726],[-149.877874833371,61.17527283958521],[-149.8773163135423,61.17525620039528],[-149.8772468793013,61.175791619090525],[-149.87668835069834,61.175774977368214],[-149.8766536280227,61.176042686573375],[-149.8760950953246,61.17602604245924],[-149.8760256388625,61.1765614605843],[-149.8749085565016,61.17652816503992],[-149.87487381803547,61.17679587381943],[-149.87431527305208,61.17677922252947],[-149.87428052932216,61.17704693116711],[-149.87372198024374,61.17703027748515],[-149.87368723124987,61.17729798598083],[-149.87312867807643,61.17728132990683],[-149.8730939238185,61.17754903826061],[-149.87253536655004,61.17753237979446],[-149.8725006070278,61.17780008800637],[-149.87194204566444,61.17778342714806],[-149.8719072808778,61.178051135217935],[-149.87079015054607,61.178017806465384],[-149.87075537581507,61.17828551425275],[-149.87019680684685,61.17826884635841],[-149.87016202685106,61.17853655400367],[-149.86848630941765,61.17848653638907],[-149.86845151479716,61.17875424361095],[-149.86621721436117,61.17868752137264],[-149.86618240043572,61.17895522803005],[-149.86506524437144,61.178921853119576],[-149.86510006765658,61.17865414674371],[-149.8628657812775,61.17858737046676],[-149.86290062269583,61.17831966465298],[-149.8617834923819,61.17828626328678],[-149.86181834257337,61.17801855775342],[-149.8612597829753,61.17800185383389],[-149.8612946372601,61.17773414844016],[-149.86017752918195,61.17770073412843],[-149.86021239223928,61.17743302901522],[-149.85909529586564,61.177399605979446],[-149.85913016769518,61.177131901146815],[-149.85522038162364,61.177014850587476],[-149.8551854770394,61.1772825544325],[-149.8540683912292,61.17724909087013],[-149.85403347669936,61.17751679443128],[-149.8523578383512,61.17746658177811],[-149.85232290919618,61.17773428491412],[-149.84673743944515,61.177566761644954],[-149.84670246290983,61.177834463366],[-149.84614391449006,61.1778176985145],[-149.84610893268712,61.178085400092655],[-149.84499182825442,61.17805186335242],[-149.84495683650437,61.17831956464599],[-149.84383972506745,61.17828601861678],[-149.84380472337006,61.178553719625896],[-149.84324616385535,61.178536943092475],[-149.84321115688977,61.178804643958564],[-149.84265259328447,61.17878786503202],[-149.84261758105052,61.17905556575502],[-149.8420590133547,61.17903878443548],[-149.84198897776068,61.179574185593744],[-149.84143040129476,61.17955740173935],[-149.84136035398498,61.180092802608655],[-149.84080176874875,61.18007601621936],[-149.84076673953024,61.1803437165102],[-149.839649561466,61.180310136693414],[-149.8396145222984,61.18057783669946],[-149.8379387455834,61.18052744966202],[-149.83790369178658,61.180795149241355],[-149.83678650089837,61.18076154634132],[-149.83675143715186,61.181029245635585],[-149.8294896930784,61.18081060540754],[-149.82952481766316,61.180542907958305],[-149.82784905878339,61.1804923989084],[-149.82781392015937,61.18076009593138],[-149.82334521839007,61.18062530492496],[-149.823310041737,61.18089300080905],[-149.82163427429606,61.18084241660373],[-149.82166946498813,61.18057472114654],[-149.81887655449208,61.18049036981822],[-149.81915824588884,61.17834881179972],[-149.81859970300007,61.17833193591867],[-149.81867012928416,61.17779654668314],[-149.8181115963453,61.177779668835605],[-149.81814681327756,61.17751197435776],[-149.81758828560976,61.177495094401245],[-149.81762350662828,61.17722740006429],[-149.81706498423145,61.17721051799895],[-149.81710020933608,61.17694282380279],[-149.81654169221022,61.17692593962859],[-149.81657692140075,61.17665824557325],[-149.8137843680534,61.1765737916455],[-149.81381962004278,61.17630609830116],[-149.80879310348257,61.17615394068718],[-149.8087578093896,61.17642163274775],[-149.806523798748,61.17635394803935],[-149.80648848534872,61.17662163952717],[-149.8048129695694,61.17657085192985],[-149.80477764154162,61.17683854298752],[-149.80421913279199,61.176821609143204],[-149.80418379949177,61.17708930005628],[-149.80083273140775,61.17698764885687],[-149.80079736944364,61.17725533891058],[-149.79577076536694,61.17710270886702],[-149.79580616943434,61.176835020101045],[-149.7941306594923,61.17678410332763],[-149.79409524139075,61.17705179166399],[-149.79241972277612,61.177000854200365],[-149.79238429004457,61.17726854210525],[-149.79182578035343,61.17725155830509],[-149.79179034234775,61.17751924606493],[-149.79067331539753,61.1774852714243],[-149.7906378674394,61.17775295889575],[-149.78952083351774,61.17771897496356],[-149.78948537560692,61.17798666214654],[-149.7883683347144,61.17795266892262],[-149.78833286685057,61.178220355817196],[-149.78721581898785,61.17818635330146],[-149.78718034117077,61.17845403990728],[-149.78662181345615,61.178437035129114],[-149.78658633036392,61.178704721589746],[-149.78602779856774,61.17868771441684],[-149.7859923102002,61.17895540073217],[-149.78487523904187,61.1789213793455],[-149.7848397407204,61.17918906537214],[-149.78260558685565,61.179120995008866],[-149.78257006922286,61.179388680459404],[-149.78089444606152,61.179337603617434],[-149.78085891379558,61.179605288635365],[-149.77750765554114,61.17950307330403],[-149.77754321587807,61.17923538914876],[-149.77642614393454,61.17920129964887],[-149.77646171303005,61.17893361577942],[-149.77590318263404,61.17891656779645],[-149.77593875580956,61.17864888406905],[-149.77538023069013,61.178631833978734],[-149.77541580794545,61.178364150393435],[-149.77429876885827,61.17833004374686],[-149.77433435487134,61.17806236044764],[-149.7737758409036,61.17804530389143],[-149.7738470204899,61.17750993757538],[-149.77328851647664,61.17749287905587],[-149.77332411004969,61.17722519603905],[-149.77276561131285,61.17720813541247],[-149.77305037576625,61.17506667236377],[-149.77249191504748,61.175049610637586],[-149.77281227135452,61.17264046586082],[-149.77225385332505,61.1726234031792],[-149.7723250463836,61.17208803794026],[-149.77176663830537,61.172070973295725],[-149.77183783832174,61.171535608336896],[-149.77127944019443,61.17151854172959],[-149.77131504398065,61.17125085939115],[-149.77075665112807,61.171233790677114],[-149.77079225899146,61.170966108480705],[-149.7691170980545,61.17091488926661],[-149.76915271934652,61.1706472075003],[-149.768035957735,61.1706130503925],[-149.76807158777942,61.17034536891226],[-149.76695483791582,61.17031120309013],[-149.76691919852013,61.17057888428211],[-149.7646856872827,61.170510525054105],[-149.7646500285849,61.17077820566746],[-149.76409164759878,61.170761110089806],[-149.76402031905272,61.17129647102218],[-149.7634619293148,61.171279372905516],[-149.76328357407374,61.172617774480834],[-149.76272516155558,61.17260067339214],[-149.76258244785916,61.17367139404014],[-149.76202401723558,61.173654290123565],[-149.76191696163303,61.174457330156386],[-149.76135851757977,61.17444022355615],[-149.76125144254524,61.17524326313859],[-149.76069298506172,61.175226153854474],[-149.76058589059346,61.17602919298677],[-149.76002741967918,61.176012081018634],[-149.7599917156451,61.176279760581224],[-149.7594332406541,61.17626264621782],[-149.75936182142982,61.17679800504857],[-149.75880333768484,61.176780888145345],[-149.7587676224944,61.177048567413465],[-149.7582091346727,61.17703144811475],[-149.75813769313464,61.177566806356516],[-149.7575791965588,61.177549684517885],[-149.75754347021095,61.17781736349158],[-149.75698496955837,61.1778002392573],[-149.75694923793193,61.17806791808466],[-149.7563907332027,61.17805079145487],[-149.75635499629755,61.17831847013574],[-149.75579648749164,61.178301341110355],[-149.7557607453076,61.178569019644954],[-149.75520223242512,61.17855188822386],[-149.75516648496205,61.178819566611985],[-149.75460796800297,61.17880243279526],[-149.75457221526065,61.17907011103701],[-149.75401369422502,61.17905297482448],[-149.7539421775803,61.179588331013264],[-149.7533836477901,61.179571192260376],[-149.7533478838874,61.179838870207334],[-149.75278935002063,61.179821729058744],[-149.75275358083817,61.180089406859295],[-149.7521950428949,61.18007226331468],[-149.7521592684325,61.180339940968736],[-149.748808025343,61.18023703155746],[-149.74877222220923,61.18050470834135],[-149.7426282814059,61.180315829005224],[-149.74259242620937,61.18058350419345],[-149.74035826529237,61.1805147526821],[-149.74032239078,61.18078242728848],[-149.73864676239356,61.18073083958202],[-149.73861087324306,61.18099851375112],[-149.73749378131401,61.18096411040053],[-149.73745788220333,61.1812317842774],[-149.73689933246632,61.181214579080134],[-149.73686342807346,61.18148225280996],[-149.7363048742621,61.18146504521621],[-149.73626896458688,61.181732718798976],[-149.7357104067012,61.1817155088088],[-149.73567449174354,61.181983182244466],[-149.73511592978352,61.18196596985776],[-149.73508000954322,61.18223364314632],[-149.72949437640426,61.18206139400544],[-149.7295303434287,61.18179372217041],[-149.72897178811945,61.18177648501974],[-149.72900775921715,61.181508813328286],[-149.72733211095482,61.18145708880536],[-149.7273680954819,61.181189417548424],[-149.72625100902292,61.18115492356813],[-149.72628700230075,61.18088725260036],[-149.7257284646574,61.180870002378946],[-149.72576446200776,61.18060233155485],[-149.72520592964779,61.18058507922783],[-149.7253859307059,61.179246725805676],[-149.7248274223398,61.179229471955566],[-149.72489942787928,61.17869413086406],[-149.72434092947353,61.178676875054116],[-149.72470096761026,61.17600017093261],[-149.72525941924695,61.17601742528684],[-149.72540339884242,61.17494674299905],[-149.72484496591113,61.17492948922707],[-149.72495295828006,61.17412647792609],[-149.7243945399824,61.1741092223401],[-149.72446654121998,61.17357388175343],[-149.72334972514446,61.17353936441177],[-149.72338573420663,61.1732716944064],[-149.72282733175288,61.17325443250524],[-149.7228633448851,61.17298676264339],[-149.7217465511458,61.17295223238039],[-149.72178257302352,61.17268456280779],[-149.72066579105825,61.17265002383375],[-149.72070182168105,61.17238235455038],[-149.71958505149024,61.17234780686553],[-149.7196210908578,61.17208013787135],[-149.7179459541429,61.1720282999023],[-149.7179099007495,61.17229596845934],[-149.71344285878945,61.17215763368685],[-149.7134789495844,61.17188996629671],[-149.70845361588488,61.17173416882929],[-149.70841748301433,61.17200183490526],[-149.7078591109652,61.17198451267718],[-149.70782297281195,61.172252178604836],[-149.70726459669544,61.17223485398022],[-149.70722845325938,61.1725025197595],[-149.70387818127577,61.17239852387465],[-149.70391435276227,61.172130858972494],[-149.70279760964965,61.17209617596628],[-149.7028337898778,61.17182851135447],[-149.7006003296535,61.171759118922154],[-149.70063652797253,61.17149145489338],[-149.69840309618635,61.171422027040094],[-149.69843931259538,61.17115436359463],[-149.69676425917376,61.17110226951512],[-149.69680048899744,61.170834606506745],[-149.69456711166248,61.17076511681543],[-149.69460335957461,61.170497454390826],[-149.6879033421937,61.170288771048114],[-149.6878670381901,61.170556431712676],[-149.68730870270008,61.17053902666052],[-149.68723608351297,61.17107434768895],[-149.68667773928487,61.171056940093024],[-149.68660510830668,61.17159226081842],[-149.68604675534036,61.171574850678596],[-149.68597411257036,61.17211017110105],[-149.68541575086562,61.172092758417065],[-149.6853430963031,61.17262807853657],[-149.6847847258598,61.17261066330838],[-149.6847483929874,61.17287832321788],[-149.6836316445841,61.172843485716605],[-149.68359530175098,61.1731111453298],[-149.68303692379112,61.17309372305662],[-149.6830005756719,61.17336138252058],[-149.67518328299982,61.173117232343294],[-149.67514686882078,61.17338488974559],[-149.6740301131674,61.17334997484778],[-149.6739936890263,61.17361763195325],[-149.67287692647326,61.17358270775933],[-149.67284049236986,61.17385036456784],[-149.67172372291776,61.17381543107759],[-149.67168727885175,61.174083087589075],[-149.67001211524536,61.1740306700334],[-149.66997565654157,61.17429832610041],[-149.66885887451934,61.17426336951628],[-149.66882240585238,61.174531025286186],[-149.66603043815542,61.174443593705476],[-149.66606693019725,61.1741759386731],[-149.66550854317344,61.17415844575324],[-149.66554503927648,61.17389079086607],[-149.6644282764198,61.17385579857016],[-149.66446478125866,61.1735881439758],[-149.6639064054258,61.173570644599806],[-149.6639429143254,61.17330299015067],[-149.66003433341197,61.173180432542516],[-149.6600708744192,61.17291277912479],[-149.6578374318256,61.17284269728961],[-149.65780087212067,61.17311035011629],[-149.64775041810654,61.17279453363959],[-149.64771377364892,61.173062183799985],[-149.64548034782254,61.172991902756394],[-149.64544368405177,61.173259552321475],[-149.64376860713244,61.17320681746634],[-149.64373192872236,61.17347446658421],[-149.64205684333118,61.17342171103178],[-149.64209353576385,61.17315406235883],[-149.64153517987486,61.17313647282256],[-149.641681962132,61.172065878699485],[-149.64112362555593,61.172048287506435],[-149.64116032425147,61.17178063911777],[-149.64060199296625,61.1717630458229],[-149.64071209937134,61.170960101087],[-149.64015378272404,61.17094250598723],[-149.64026389759536,61.17013956167369],[-149.63970559558527,61.170121964769045],[-149.63977901176008,61.16958666884404],[-149.63866242828408,61.16955146887833],[-149.63869914479176,61.1692838212088],[-149.637582573131,61.16924861254018],[-149.63761929836716,61.168980965165055],[-149.636502738522,61.16894574779362],[-149.6365394724863,61.16867810071281],[-149.63598119816285,61.168660488800754],[-149.6360179361822,61.168392841865845],[-149.63490139873375,61.168357611589094],[-149.63493814548065,61.16808996494863],[-149.62991379960567,61.167931318672785],[-149.6299505877866,61.16766367336751],[-149.62883408262715,61.16762839418896],[-149.6288708795341,61.167360749178464],[-149.62831263255453,61.167343106363326],[-149.628349433515,61.16707546149894],[-149.62723295075634,61.16704016941679],[-149.62726976044226,61.16677252484742],[-149.62671152466316,61.166754875580494],[-149.62674833840222,61.16648723115717],[-149.62619010791397,61.166469579789386],[-149.626226925706,61.1662019355123],[-149.62566870050856,61.16618428204369],[-149.6257423435792,61.16564899377891],[-149.62518412834424,61.165631338358374],[-149.6252946023224,61.16482840638735],[-149.62473640172098,61.16481074916386],[-149.62481005728722,61.16427546146717],[-149.62425186664754,61.16425780229189],[-149.62432552907975,61.163722514881876],[-149.62376734840143,61.16370485375482],[-149.62380418335988,61.16343721019458],[-149.62324600797177,61.16341954696697],[-149.6232828469819,61.16315190355291],[-149.62272467688396,61.163134238224714],[-149.6227615199457,61.16286659495678],[-149.62220335513783,61.16284892752801],[-149.6222770487448,61.162313641281564],[-149.62171889389768,61.16229597190146],[-149.62175574444268,61.16202832892291],[-149.62119759488553,61.1620106574423],[-149.6212344494816,61.16174301460996],[-149.62067630521435,61.16172534102906],[-149.6207131638613,61.161457698342886],[-149.62015502488399,61.16144002266161],[-149.62019188758165,61.16117238012153],[-149.61963375389422,61.16115470234003],[-149.61967062064247,61.16088705994607],[-149.61911249224485,61.160869380064355],[-149.61914936304356,61.16060173781661],[-149.61859123993577,61.16058405583462],[-149.6186281147847,61.160316413733085],[-149.61751187976856,61.160281043319436],[-149.6175487633375,61.16001340151325],[-149.61699065142915,61.15999571308165],[-149.617027539048,61.15972807142164],[-149.61591132643096,61.159692688109246],[-149.61594822276916,61.159425046744566],[-149.614832021972,61.159389654733786],[-149.61486892702928,61.15912201366454],[-149.61319464449448,61.15906890922746],[-149.61323156293986,61.15880126860291],[-149.61155729999786,61.15874814437149],[-149.6115942318308,61.158480504191814],[-149.6110361500941,61.15846279176579],[-149.6110730859755,61.15819515173246],[-149.609956933703,61.158159720431904],[-149.6099938783019,61.15789208069413],[-149.60887773785126,61.15785664069616],[-149.60891469116729,61.157589001254266],[-149.60779856253887,61.157553552559],[-149.6078355245717,61.15728591341283],[-149.60727746585817,61.15726818584115],[-149.60731443193862,61.157000546841374],[-149.60452417103514,61.15691187599589],[-149.6044871816109,61.157179514248256],[-149.60392912662607,61.15716177318278],[-149.60389213191138,61.15742941128265],[-149.60221795668136,61.15737617414398],[-149.60218094733835,61.15764381179196],[-149.60162288550342,61.157626061431586],[-149.60158587086954,61.15789369892694],[-149.6004697397282,61.15785819115994],[-149.60043271513436,61.158125828353064],[-149.5998746458281,61.158108070946454],[-149.59983761594302,61.15837570798686],[-149.59872146985964,61.15834018612713],[-149.5986844300141,61.15860782286509],[-149.5975682770827,61.158572291709966],[-149.59753122727645,61.15883992814537],[-149.59697314707566,61.1588221590445],[-149.59693609197757,61.15908979532718],[-149.59581992410617,61.15905425007863],[-149.59578285904684,61.159321886058656],[-149.5941085979045,61.1592685508686],[-149.59407151821452,61.15953618639598],[-149.59016489801365,61.15941165785293],[-149.58960681190794,61.159393859064856],[-149.5896439289512,61.159126224737186],[-149.58908584813838,61.159108423850114],[-149.58912296922685,61.158840789669455],[-149.58856489370692,61.15882298668347],[-149.5886020188404,61.15855535264975],[-149.5874858790103,61.15851974023094],[-149.58752301285747,61.158252106494366],[-149.5869649485473,61.15823429706167],[-149.5870020864391,61.15796666347212],[-149.5864440274218,61.157948851940596],[-149.58648116935808,61.15768121849809],[-149.58536506253338,61.157645588988615],[-149.5854022131825,61.1573779558433],[-149.58484416537516,61.15736013786541],[-149.5849184741371,61.15682487186582],[-149.5843604362909,61.156807051939495],[-149.58439759440355,61.156539419085306],[-149.58383956185006,61.15652159706022],[-149.58387672400636,61.15625396435309],[-149.58276067010928,61.15621831385708],[-149.5827978409772,61.15595068144723],[-149.58223981963366,61.15593285297636],[-149.58227699454486,61.15566522071367],[-149.581718978494,61.15564739014427],[-149.58175615744835,61.155379758028666],[-149.5811981466901,61.15536192536081],[-149.58123532968742,61.15509429339232],[-149.58011931938105,61.15505862161118],[-149.58015651108886,61.154790989940125],[-149.57959851154078,61.154773150826905],[-149.57963570729117,61.154505519303044],[-149.57796172640013,61.15445198892243],[-149.57799893552783,61.154184357846404],[-149.57744094781535,61.15416651003937],[-149.57747816098512,61.153898879110585],[-149.5763621967709,61.153863177051484],[-149.5764366399033,61.153327915785965],[-149.57532069685965,61.15329220533445],[-149.5753579268218,61.15302457499776],[-149.57368403094955,61.15297099290797],[-149.5737212742869,61.152703363019604],[-149.5731633149146,61.152685497976435],[-149.573200562293,61.15241786823539],[-149.57264260821339,61.15240000109439],[-149.57267985963261,61.15213237150053],[-149.57212191084568,61.15211450226165],[-149.57215916630562,61.15184687281516],[-149.5716012228113,61.151829001478355],[-149.57163848231184,61.151561372179096],[-149.5705226065345,61.1515256230616],[-149.57055987474186,61.151257994060316],[-149.57000194245887,61.15124011627958],[-149.57003921470638,61.150972487425626],[-149.569481287716,61.150954607547206],[-149.56955583966473,61.150419350130676],[-149.56899792263306,61.15040146830526],[-149.56907248140865,61.14986621117665],[-149.5685145743354,61.14984832740425],[-149.5685891399374,61.14931307056368],[-149.5680312428223,61.14929518484436],[-149.56814310052434,61.14849230001029],[-149.5675852180326,61.14847441249493],[-149.56765979603273,61.147939156223366],[-149.56710192349837,61.14792126676129],[-149.5672137997958,61.147118382780434],[-149.56665594188368,61.147100491522494],[-149.56669323739487,61.146832863672735],[-149.56613538477436,61.1468149703175],[-149.56620998324695,61.146279714909234],[-149.56565214058293,61.14626181960744],[-149.56572674587866,61.1457265644869],[-149.5651689131708,61.145708667238694],[-149.56520621954328,61.14544103982403],[-149.5646483921268,61.14542314047857],[-149.5646857025371,61.14515551321118],[-149.56412788041192,61.14513761176867],[-149.5641651948599,61.144869984648565],[-149.562491746239,61.144816267286146],[-149.56245441779777,61.14508389395362],[-149.56189659818045,61.14506598351945],[-149.56193393128606,61.144798357002735],[-149.55802924418003,61.144672922079415],[-149.55806660930818,61.144405296615886],[-149.55750880403878,61.14438736850075],[-149.55754617320338,61.1441197431846],[-149.55587277515423,61.144065945805266],[-149.55591015768303,61.14379832093889],[-149.55535236425314,61.14378038413463],[-149.55542713675462,61.14324513469325],[-149.5548693532804,61.14322719594344],[-149.55520584042347,61.140818574639816],[-149.55464809954776,61.140800635002144],[-149.55472287688667,61.14026538608605],[-149.55416514596484,61.14024744450306],[-149.55427732125162,61.13944457155489],[-149.55371960494608,61.13942662817779],[-149.55383178856823,61.138623755649945],[-149.55327408687822,61.1386058104788],[-149.55331148482517,61.13833818644655],[-149.55275378842563,61.13832023917914],[-149.55279119040668,61.13805261529439],[-149.5522334992975,61.13803466593081],[-149.55227090531255,61.13776704219351],[-149.55115553430326,61.13773113702658],[-149.55119294901417,61.137463513587896],[-149.55063526911408,61.13744555778464],[-149.55067268785857,61.13717793449349],[-149.5501150132488,61.137159976594205],[-149.5501524360267,61.13689235345051],[-149.5490370980165,61.13685643121254],[-149.5490745294894,61.13658880836766],[-149.5479592033172,61.13655287744311],[-149.5479966434847,61.13628525489705],[-149.5468813291509,61.136249315286264],[-149.5469187780127,61.13598169303902],[-149.54580347551754,61.135945744742116],[-149.54584093307324,61.13567812279385],[-149.5441679980328,61.135624183948856],[-149.5442054689434,61.13535656245098],[-149.54253255355027,61.13530260383602],[-149.54249506865594,61.13557022487956],[-149.53914922690112,61.135462246068116],[-149.53918673976253,61.13519462593386],[-149.53807147353882,61.13515861532302],[-149.53810899509233,61.134890995488135],[-149.53532086386645,61.13480093039531],[-149.5353584080944,61.13453331131498],[-149.53480078840124,61.13451529170695],[-149.5348383366595,61.134247672774485],[-149.53372310848644,61.13421162712083],[-149.53368555090665,61.13447924574991],[-149.52922462616277,61.13433497204098],[-149.5294125941759,61.13299688493072],[-149.52885500472536,61.132978841365194],[-149.52889260109438,61.132711224083366],[-149.52833501693536,61.13269317842293],[-149.52837261733322,61.13242556128901],[-149.5278150384657,61.132407513533636],[-149.52789024668726,61.131872279557946],[-149.52733267777114,61.13185422985967],[-149.52737028559466,61.13158661301783],[-149.52681272196986,61.13156856122478],[-149.52685033382167,61.131300944530906],[-149.5262927754882,61.131282890643014],[-149.52633039136813,61.13101527409722],[-149.52577283832596,61.13099721811455],[-149.52581045823388,61.130729601716745],[-149.52525291048292,61.130711543639414],[-149.52529053441867,61.13044392738958],[-149.524175450131,61.13040780479882],[-149.5242130827538,61.13014018884912],[-149.5230980103123,61.13010405757574],[-149.5231356516218,61.12983644192623],[-149.52257812100834,61.12981837307166],[-149.522615766345,61.12955075757024],[-149.52094319227476,61.12949653798314],[-149.52098085095656,61.12922892293405],[-149.51652071853457,61.12908423973571],[-149.5165584138553,61.1288166259006],[-149.51544339639494,61.12878043293994],[-149.51551880377258,61.128245205866676],[-149.51440380747906,61.128209004529495],[-149.51444151953547,61.12794139129141],[-149.51276904381967,61.127887072894055],[-149.51280676921826,61.127619460109116],[-149.51224928323808,61.12760134963621],[-149.5122870126616,61.127333736999596],[-149.51061457249688,61.12727939255961],[-149.51065231526167,61.12701178037626],[-149.50897989477437,61.12695741617623],[-149.50894213803508,61.12722502790201],[-149.5072697092783,61.127170643026766],[-149.50723193793047,61.12743825429059],[-149.50555950090634,61.12738384873998],[-149.50552171494968,61.12765145954163],[-149.50496423255208,61.12763331971263],[-149.50500202316692,61.127365709063625],[-149.5027721185546,61.12729312789447],[-149.50280992716733,61.12702551785223],[-149.50113751934688,61.1269710588468],[-149.5012131626156,61.126435839666556],[-149.50065570392772,61.126417682477744],[-149.50073135397216,61.12588246358633],[-149.50017390523473,61.12586430445685],[-149.50028738951153,61.12506147654646],[-149.49972995538164,61.12504331562936],[-149.49991910642876,61.12370526979131],[-149.49936169621984,61.12368710739236],[-149.49943736150726,61.12315188933294],[-149.4988799612472,61.12313372499348],[-149.49895563330784,61.12259850722263],[-149.4983982429964,61.12258034094302],[-149.4984739218297,61.12204512346063],[-149.49791654146654,61.122026955240756],[-149.49795438458685,61.121759346645945],[-149.4973970095153,61.12174117633297],[-149.49751054903393,61.12093835098139],[-149.49695318856638,61.1209201788812],[-149.49729381472272,61.118511703966725],[-149.49673649679238,61.11849353099696],[-149.49685004137658,61.11769070640495],[-149.49740734534106,61.117708878916005],[-149.4975208702432,61.116906053825396],[-149.49807816087755,61.116924223632196],[-149.49834299750594,61.115050963861535],[-149.49890025619231,61.1150691303527],[-149.49897590877742,61.11453391292948],[-149.4995331587899,61.11455207686953],[-149.49957097947598,61.114284467998274],[-149.50068547209636,61.11432078883645],[-149.50072328283937,61.11405317965522],[-149.50128052544716,61.11407133655344],[-149.50131833090148,61.11380372721492],[-149.50187556948956,61.113821881714955],[-149.50191336965537,61.11355427221926],[-149.50247060422367,61.1135724243211],[-149.50269736397507,61.11196676633585],[-149.5032545712545,61.11198491527621],[-149.50336792860827,61.111182085764476],[-149.50392512256124,61.11120023200163],[-149.5040006816536,61.110665011999046],[-149.5045578669338,61.110683155685756],[-149.50470895889904,61.1096127150153],[-149.5052661262006,61.10963085584648],[-149.50534165907465,61.109095635178655],[-149.5058988177041,61.109113773459484],[-149.5059365785378,61.10884616296613],[-149.50649373314803,61.10886429884933],[-149.50653148869543,61.10859668819884],[-149.50708863928642,61.108614821684476],[-149.5071641391755,61.108079600064656],[-149.5077212810946,61.10809773100025],[-149.50775902543654,61.10783012003089],[-149.50831616333636,61.10784824856894],[-149.50835390239254,61.107580637442524],[-149.5089110362731,61.1075987635831],[-149.50913742940025,61.105993095812856],[-149.50969453600052,61.10601121879391],[-149.50980771006246,61.10520838438892],[-149.51036480334,61.10522650466788],[-149.51044024024668,61.1046912814031],[-149.51099732485358,61.104709399132574],[-149.5110350377061,61.10444178734078],[-149.51159211829412,61.104459902673035],[-149.5116298258624,61.10419229072425],[-149.51218690243144,61.10421040365942],[-149.51222460471567,61.103942791553656],[-149.51278167726574,61.10396090209169],[-149.512819374266,61.10369328982901],[-149.51337644279707,61.10371139796999],[-149.51341413451357,61.103443785550304],[-149.5150853299462,61.103498096047936],[-149.5152360346748,61.10242764449557],[-149.51579308247835,61.102445742896585],[-149.51632040429254,61.09869915973786],[-149.5168773876203,61.09871725376415],[-149.51695269989955,61.09818202721817],[-149.51750967455905,61.09820011869583],[-149.5176602729394,61.09712966493806],[-149.51821722963152,61.097147753562965],[-149.51833015783782,61.0963449127379],[-149.51888710121287,61.096362998662386],[-149.51896237422838,61.095827771117406],[-149.5195193089361,61.09584585449366],[-149.51959457012842,61.09531062662532],[-149.52015149616898,61.09532870745325],[-149.52022674553868,61.094793479261554],[-149.52078366291227,61.094811557541405],[-149.52082128200163,61.094543943286254],[-149.52137819535724,61.09456201917002],[-149.52141580916685,61.0942944047581],[-149.52197271850446,61.09431247824574],[-149.52201032703445,61.09404486367707],[-149.522567232354,61.09406293476868],[-149.52264243822438,61.093527705312916],[-149.52319933487718,61.09354577385661],[-149.52331212500752,61.092742929180766],[-149.52386900834532,61.09276099502483],[-149.52390659914602,61.092493379971216],[-149.52446347846586,61.09251144341943],[-149.52453864887948,61.09197621299391],[-149.52509551953307,61.09199427389451],[-149.52513309914625,61.09172665852256],[-149.52624683304765,61.09176277328821],[-149.52628440273438,61.09149515760786],[-149.52684126598206,61.091513211472964],[-149.5268788303907,61.09124559563594],[-149.52799254947973,61.09128169633087],[-149.52803010396238,61.0910140801855],[-149.52914381627454,61.091050171601324],[-149.52918136083147,61.09078255514773],[-149.52973821328402,61.090800597338024],[-149.5297757525634,61.09053298072787],[-149.53088945006124,61.090569058073584],[-149.5309269794154,61.09030144115531],[-149.53259751643844,61.090355539889764],[-149.5326350312198,61.09008792251188],[-149.5343055599613,61.0901420005967],[-149.5343430601702,61.089874382759426],[-149.53935463851425,61.09003649448027],[-149.53939209626404,61.08976887527565],[-149.5399489367962,61.089786876318165],[-149.53998638927004,61.08951925695746],[-149.5411000629228,61.089555252008466],[-149.54113750547307,61.089287632340294],[-149.54336484172157,61.08935959491072],[-149.54340226505303,61.089091974632865],[-149.54395909603647,61.089109959514616],[-149.54399651409273,61.08884233908075],[-149.54455334105597,61.088860321567566],[-149.5445907538371,61.088592700977586],[-149.5451475767801,61.088610681069405],[-149.54518498428632,61.08834306032351],[-149.545741803209,61.08836103802037],[-149.54600360565868,61.086487691604304],[-149.54656039267755,61.086505665999944],[-149.54663517843957,61.08597042382031],[-149.54719195679155,61.085988395670256],[-149.54745365468327,61.084115046828764],[-149.54801040113577,61.08413301537802],[-149.54819728616636,61.082794908158455],[-149.54875401001473,61.08281287370947],[-149.54886611957573,61.08201000886483],[-149.54942283011297,61.08202797171955],[-149.5494601940679,61.08176034994375],[-149.5500169005858,61.081778310404225],[-149.55005425926865,61.08151068847247],[-149.55061096176723,61.08152864653869],[-149.5506483151781,61.08126102445094],[-149.55120501365735,61.08127898012296],[-149.55124236179643,61.08101135787937],[-149.55179905625624,61.0810293111572],[-149.55183639912372,61.08076168875779],[-149.55239308956413,61.08077963964136],[-149.55243042716012,61.080512017086185],[-149.55298711358103,61.080529965575664],[-149.55306177760454,61.07999472014841],[-149.55361845536066,61.08001266609305],[-149.55365578178842,61.07974504322108],[-149.55421245552506,61.07976298677174],[-149.55428709721312,61.079227740711225],[-149.55484376228515,61.07924568171719],[-149.55491839218064,61.07871043533488],[-149.55547504858825,61.078728373796174],[-149.5557735059931,61.07658738685834],[-149.55633012586915,61.07660532187108],[-149.55640472467823,61.07607007478429],[-149.55696133589103,61.076088007252714],[-149.55699862971358,61.07582038355108],[-149.55755523690735,61.07583831362593],[-149.55759252546068,61.075570689768476],[-149.55814912863542,61.0755886174497],[-149.55818641191968,61.07532099343655],[-149.55929961085587,61.07535684176905],[-149.55933688422726,61.07508921744955],[-149.56100667338526,61.075142972674556],[-149.5610439322001,61.07487534789848],[-149.56215711880702,61.07491117319926],[-149.56219436770954,61.074643548117194],[-149.5610811903904,61.07460772311724],[-149.5611184479562,61.07434009833092],[-149.56056186487714,61.074322182617],[-149.56059912646217,61.074054557975934],[-149.5600425486514,61.07403664016964],[-149.5600798142555,61.07376901567394],[-149.55952324171295,61.073751095775336],[-149.55956051133592,61.07348347142496],[-149.55900394406163,61.07346554943394],[-149.55904121770337,61.07319792522892],[-149.55848465569719,61.07318000114563],[-149.55852193335753,61.072912377085956],[-149.55796537661953,61.072894450910375],[-149.55803993935223,61.072359203076665],[-149.55748339252548,61.072341274959435],[-149.55752067759764,61.07207365118536],[-149.5569641360389,61.072055720975996],[-149.55700142512913,61.071788097347216],[-149.55644488883834,61.07177016504572],[-149.55648218194648,61.07150254156234],[-149.55592565092365,61.07148460716872],[-149.55600024455035,61.07094936048748],[-149.55544372343812,61.07093142415252],[-149.55551832384967,61.07039617775156],[-149.55496181264775,61.07037823947513],[-149.55503641984365,61.069842993354456],[-149.55447991855172,61.06982505313675],[-149.55455453253145,61.06928980729622],[-149.55399804114927,61.06927186513733],[-149.5540726619123,61.06873661957697],[-149.55351618043952,61.068718675476944],[-149.55359080798533,61.06818343019667],[-149.55303433642166,61.06816548415552],[-149.55310897074972,61.06763023915534],[-149.55255250909494,61.067612291173155],[-149.55258982996253,61.06734466881584],[-149.55203337357474,61.06732671874198],[-149.55210802271665,61.06679147431264],[-149.55155157623733,61.06677352229787],[-149.55158890451145,61.06650590022593],[-149.55103246329898,61.06648794611957],[-149.55110712725306,61.06595270226101],[-149.5505506959486,61.06593474621382],[-149.55058803162837,61.06566712442728],[-149.5494751801786,61.06563120590773],[-149.5495125245147,61.06536358441727],[-149.5489561043694,61.065345621945035],[-149.54899345272062,61.0650780006],[-149.54843703784204,61.06506003603632],[-149.54847439020824,61.06479241483667],[-149.54791798059634,61.064774448181645],[-149.54795533697737,61.06450682712744],[-149.54739893263212,61.06448885838109],[-149.54743629302777,61.06422123747232],[-149.54632349549664,61.06418529355483],[-149.54636086454727,61.06391767294246],[-149.5458044713614,61.06389969777144],[-149.5458418444263,61.06363207730444],[-149.54528545650703,61.063614100042294],[-149.54539758586523,61.062811239061205],[-149.54484121249294,61.06279326000983],[-149.54502810543147,61.0614551590196],[-149.54447175588498,61.06143717848086],[-149.54450913723355,61.06116955841725],[-149.54339644929888,61.06113359091594],[-149.54343383930026,61.060865971148736],[-149.54232116315046,61.0608299949818],[-149.54235856180435,61.060562375511],[-149.54180222930873,61.06054438421571],[-149.5418396319754,61.06027676489044],[-149.54239595983165,61.060294756034665],[-149.5424707540066,61.05975951706535],[-149.54302707321088,61.05977750566568],[-149.54313924585713,61.05897464671705],[-149.54369555177067,61.05899263262271],[-149.54377032112495,61.05845739299374],[-149.54432661838703,61.058475376355716],[-149.54455088358773,61.05686965642881],[-149.54510715364432,61.05688763664355],[-149.54521926387693,61.056084776151515],[-149.54577552064475,61.05610275367202],[-149.5458876113292,61.05529989267664],[-149.54644385480876,61.05531786750299],[-149.54655592594673,61.05451500600416],[-149.54711215613858,61.05453297813662],[-149.54718685782643,61.05399773680732],[-149.54774307936862,61.054015706396655],[-149.54781776927885,61.05348046474308],[-149.54837398217154,61.05349843178945],[-149.5484113215509,61.05323081080343],[-149.54896753043164,61.05324877545769],[-149.54907953090532,61.05244591201298],[-149.54963572649953,61.05246387397372],[-149.54967305410293,61.052196252663315],[-149.55022924568522,61.05221421223191],[-149.5503038897423,61.05167896929265],[-149.55086007267562,61.05169692631867],[-149.55100933474114,61.05062643976868],[-149.55156549975214,61.050644393950776],[-149.5516774258292,61.04984152852621],[-149.55223357755534,61.049859480015094],[-149.5522708803615,61.04959185804478],[-149.552827028076,61.049609807141984],[-149.55286432562102,61.049342185015334],[-149.55397661365117,61.04937807618524],[-149.5540139012989,61.049110453751666],[-149.55568232411872,61.049164273246554],[-149.55571959723312,61.048896650355566],[-149.5562757347854,61.04891458555452],[-149.55683187296185,61.04893251851229],[-149.55679460912012,61.04920014170417],[-149.56013147910065,61.04930769328993],[-149.56009424245357,61.04957531737851],[-149.56509963124526,61.0497364948318],[-149.56513682616315,61.049468869390886],[-149.566249132365,61.04950466164926],[-149.56628631738673,61.04923703590242],[-149.57017937625096,61.0493622371586],[-149.57021652819384,61.04909461035554],[-149.57244112840382,61.04916610402436],[-149.5724782611781,61.048898476615776],[-149.57525900225016,61.04898779252551],[-149.57529611121964,61.04872016436179],[-149.57918914236598,61.0488451114569],[-149.57922621825776,61.04857748223917],[-149.5808946555838,61.048630996927244],[-149.5808205309996,61.04916625625509],[-149.58137668729,61.04918409030127],[-149.58130256949656,61.049719349905885],[-149.5818587356815,61.049737182010126],[-149.5818216804907,61.0500048119536],[-149.58237785193333,61.05002264196612],[-149.58234080075903,61.05029027205362],[-149.58289697745934,61.05030809997453],[-149.58285993030168,61.05057573020599],[-149.58341611225975,61.05059355603514],[-149.58337906911885,61.05086118641056],[-149.5839352563347,61.05087901014794],[-149.58389821721076,61.05114664066738],[-149.58445440968444,61.05116446231286],[-149.58441737457755,61.051432092976206],[-149.58552977066086,61.05146772984218],[-149.5854927442088,61.05173536079903],[-149.58660515204815,61.051770988998285],[-149.58656813425128,61.052038620248545],[-149.58768055384633,61.052074239780964],[-149.58764354470503,61.05234187132462],[-149.5887559760554,61.05237748218994],[-149.58871897557,61.052645114026916],[-149.5898314186754,61.052680716225055],[-149.58979442684628,61.05294834835522],[-149.5903506539665,61.05296614624144],[-149.59031366615585,61.053233778515406],[-149.59086989853384,61.053251574309414],[-149.59083291474178,61.05351920672725],[-149.59194539063267,61.05355479188916],[-149.59190841549776,61.0538224246002],[-149.59246465901066,61.05384021396796],[-149.59242768789474,61.05410784682282],[-149.5929839366654,61.05412563409831],[-149.5929469695687,61.05439326709699],[-149.59350322359714,61.05441105228005],[-149.5934662605197,61.05467868542258],[-149.594022519806,61.054696468513285],[-149.59398556074808,61.054964101799484],[-149.5945418252922,61.05498188279782],[-149.59446791459655,61.05551714965244],[-149.59502418903745,61.05553492870742],[-149.59495028514337,61.0560701958388],[-149.5960628544382,61.056105747820325],[-149.5960259108409,61.05637338167623],[-149.59658220105587,61.05639115445347],[-149.59654526147887,61.05665878845318],[-149.5971015569519,61.05667655913783],[-149.5970646213954,61.05694419328121],[-149.59762092212657,61.05696196187313],[-149.59758399059066,61.05722959616039],[-149.59814029658003,61.05724736265955],[-149.59810336906492,61.05751499709052],[-149.59865968031244,61.057532761496915],[-149.59862275681826,61.05780039607162],[-149.59917907332402,61.0578181583852],[-149.59914215385092,61.058085793103665],[-149.6002547979974,61.05812131130328],[-149.60021788718535,61.05838894631441],[-149.60188687196236,61.058442207246195],[-149.60184997445165,61.05870984269924],[-149.6035189787122,61.05876308390002],[-149.6034820945034,61.05903071979463],[-149.60459477638054,61.059066203016414],[-149.6045579008341,61.059333839203475],[-149.6051142473396,61.05935157760016],[-149.60507737581557,61.05961921393089],[-149.6084154956609,61.05972559812093],[-149.60837865136142,61.05999323533942],[-149.60949137219677,61.060028679096874],[-149.60945453656103,61.060296316607634],[-149.61001090254507,61.06031403527199],[-149.60997407093274,61.0605816729262],[-149.61776332444194,61.06082950087987],[-149.61780009108386,61.06056186114517],[-149.62058197340622,61.0606502638818],[-149.62054522996877,61.0609179043586],[-149.62110161292142,61.06093557832765],[-149.6210648735093,61.061203218947696],[-149.62217765054342,61.06123856045575],[-149.6221409197979,61.06150620136729],[-149.62269731387934,61.06152386890628],[-149.62266058715957,61.061791509960955],[-149.6232169864976,61.06180917540597],[-149.62318026380376,61.0620768166039],[-149.6242930736084,61.06211214106347],[-149.624256359582,61.06237978255269],[-149.62536918113028,61.06241509833952],[-149.62533247577173,61.062682740120124],[-149.62588889211003,61.06270039479815],[-149.625852190778,61.062968036721934],[-149.6264086123729,61.062985689305776],[-149.6263719150676,61.0632533313726],[-149.62692834191915,61.06327098186224],[-149.6268916486407,61.0635386240721],[-149.62744808074896,61.06355627246759],[-149.62730132005422,61.064626841848934],[-149.62785777134536,61.06464448859458],[-149.62774770829512,61.06544741602186],[-149.6271912430771,61.06542976883168],[-149.6268242798484,61.068106191779954],[-149.6273807914944,61.06812384045197],[-149.62734409643213,61.06839148286739],[-149.63179624887943,61.0685325926887],[-149.63175959034908,61.06880023628421],[-149.6334291715867,61.068853115904766],[-149.63339252637255,61.069120759939395],[-149.63394905932378,61.06913838214194],[-149.63391241813906,61.06940602631955],[-149.63502549517105,61.06944126429181],[-149.63495222953435,61.06997655322429],[-149.63550877825892,61.06999416914202],[-149.63547214916346,61.07026181374867],[-149.63602870314594,61.07027942757144],[-149.63599207808053,61.07054707232121],[-149.63654863732089,61.070564684048854],[-149.63647539463673,61.07109997382958],[-149.63703196377918,61.07111758361005],[-149.63699534616066,61.07138522864093],[-149.63755192056115,61.07140283632624],[-149.63751530697317,61.07167048150017],[-149.63807188663174,61.071688087090365],[-149.63803527707452,61.071955732407304],[-149.6391484475214,61.071990937153906],[-149.63911184663965,61.072258582761755],[-149.63966843742793,61.07227618191825],[-149.63963184057735,61.07254382766901],[-149.6407450332835,61.07257901954832],[-149.64070844510897,61.07284666558984],[-149.64126504702682,61.07286425831249],[-149.64122846288382,61.073131904497025],[-149.64178507005974,61.07314949512421],[-149.64174848994847,61.073417141451614],[-149.64230510238252,61.073434729983475],[-149.6422685263031,61.07370237645376],[-149.6428251439953,61.07371996289014],[-149.6427519992874,61.07425525611189],[-149.64330862688306,61.07427284060043],[-149.6432720582548,61.07454048735183],[-149.64382869110875,61.07455806974473],[-149.6437921265129,61.07482571663903],[-149.6443487646252,61.0748432969363],[-149.64431220406186,61.07511094397352],[-149.64486884743255,61.07512852217515],[-149.64483229090192,61.07539616935532],[-149.64538893953102,61.075413745461255],[-149.6453523870332,61.075681392784304],[-149.6459090409207,61.075698966794505],[-149.6458724924559,61.07596661426043],[-149.64642915160192,61.07598418617488],[-149.64639260717027,61.076251833783644],[-149.64750593659187,61.07628697117744],[-149.64746940083947,61.07655461907673],[-149.64802607111503,61.076572184556085],[-149.64795300706493,61.07710748063568],[-149.6485096872451,61.07712504416661],[-149.64847315894764,61.07739269234688],[-149.64902984438643,61.077410253781856],[-149.64899332012288,61.077677902104966],[-149.64955001082035,61.077695461443945],[-149.6494769697491,61.07823075837131],[-149.65003367035175,61.078248315761776],[-149.64996063612458,61.078783612965495],[-149.65051734663274,61.07880116840726],[-149.65040780464062,61.0796041146205],[-149.6509645297015,61.07962166826116],[-149.6508549961407,61.08042461487524],[-149.65141173575498,61.08044216671466],[-149.65137522799097,61.0807098157243],[-149.6519319728646,61.080727365467304],[-149.65185896479497,61.08126266376769],[-149.65241571957543,61.08128021156191],[-149.65237921927002,61.08154786085264],[-149.65293597931,61.08156540655039],[-149.65286298615842,61.08210070541321],[-149.65341975610565,61.082118249162015],[-149.6533832632597,61.08238589873391],[-149.6539400384666,61.082403440386244],[-149.6539035496566,61.08267109010099],[-149.65501711120157,61.082706166968734],[-149.6549806310757,61.08297381697372],[-149.65609420436337,61.08300888516034],[-149.6560577329219,61.083276535455546],[-149.6566145251312,61.0832940663303],[-149.65657805772636,61.083561716768216],[-149.65713485519535,61.08357924554631],[-149.6570983918273,61.08384689612708],[-149.65765519455596,61.083864422808404],[-149.6575458147284,61.084667374965726],[-149.65810263201377,61.08468489984486],[-149.65802971836902,61.08522020155515],[-149.65858654556305,61.08523772448476],[-149.65851363877053,61.085773026471685],[-149.65907047587348,61.08579054745175],[-149.65903402620918,61.08605819858573],[-149.65959086857234,61.08607571746875],[-149.65951797670817,61.08661102001817],[-149.66118853535903,61.08666356408537],[-149.6611521024578,61.08693121579502],[-149.66170896121275,61.08694872614276],[-149.6615996727913,61.087751681686775],[-149.66215654610542,61.087769190231825],[-149.6621201200593,61.088036842218195],[-149.66267699863388,61.08805434866601],[-149.66264057662656,61.08832200079514],[-149.6637543449075,61.088357007252014],[-149.66371793158885,61.088624659671055],[-149.6648317116121,61.088659657444694],[-149.6647953069825,61.088927310153444],[-149.6653522025599,61.088944805820766],[-149.66531580196977,61.089212458672264],[-149.6658727028076,61.089229952242206],[-149.66583630625703,61.08949760523642],[-149.66695011906407,61.08953258593702],[-149.66691373120344,61.089800239220935],[-149.66802755575196,61.08983521123772],[-149.6679911765816,61.09010286481124],[-149.66854809442142,61.090120347599914],[-149.6685117192913,61.090388001316114],[-149.6690686423916,61.090405482007185],[-149.66903227130183,61.09067313586598],[-149.66958919966262,61.09069061445946],[-149.66955283261342,61.09095826846103],[-149.67010976623473,61.0909757449568],[-149.6700006753795,61.09177870737652],[-149.67055762356296,61.09179618206838],[-149.67048490257838,61.09233149062077],[-149.67104186067363,61.092348963361786],[-149.6710055039176,61.092616617778454],[-149.67156246727373,61.09263408842166],[-149.67152611455904,61.092901742981006],[-149.67264005240287,61.092936677827076],[-149.67260370838096,61.09320433267583],[-149.67371765796582,61.09323925883665],[-149.67368132263704,61.093506913974856],[-149.6753522655394,61.093559286820735],[-149.67527962096258,61.094094597965125],[-149.67583661245175,61.0941120513844],[-149.6758002939011,61.094379707097026],[-149.6763572906512,61.094397158418126],[-149.67628466102585,61.09493247012444],[-149.6768416676887,61.094949919494155],[-149.67658747737542,61.0968235113627],[-149.67714451721272,61.0968409595143],[-149.67710820652664,61.09710861562583],[-149.67766525162557,61.0971260616791],[-149.67762894498293,61.097393717933215],[-149.6781859953435,61.097411161888104],[-149.67814969274448,61.09767881828474],[-149.6787067483668,61.09769626014133],[-149.67867044981153,61.09796391668057],[-149.67922751069557,61.097981356438716],[-149.67919121618422,61.09824901312044],[-149.68086241644798,61.098301319364076],[-149.68082613528665,61.0985689764816],[-149.68249735498745,61.09862126295869],[-149.68246108717676,61.098888920511854],[-149.68301816628048,61.09890634499367],[-149.6829819025145,61.09917400268938],[-149.69189532531465,61.09945249139384],[-149.69185913539496,61.09972015142734],[-149.69353043344424,61.0997723045085],[-149.6934942568783,61.10003996497653],[-149.69627978903338,61.10012684260314],[-149.69624363512935,61.10039450379784],[-149.69735786154558,61.100429239423285],[-149.6973217163428,61.10069690090619],[-149.6984359544926,61.10073162784222],[-149.6983998179914,61.10099928961326],[-149.69895694262982,61.10101664985919],[-149.69881240917871,61.10208729748814],[-149.69825526592336,61.10206993665817],[-149.69782155150426,61.105281877420836],[-149.69837875061782,61.105299240003134],[-149.69834260846272,61.10556690185441],[-149.70001422340806,61.10561897656489],[-149.69997809461287,61.10588663885044],[-149.70109251691886,61.10592134438746],[-149.70112863640307,61.105653681810004],[-149.70224305182245,61.10568837807208],[-149.70227916138964,61.10542071519894],[-149.70283636535282,61.105438059815434],[-149.7028724696587,61.10517039679272],[-149.70398687009165,61.10520507899684],[-149.70402296448103,61.104937415678556],[-149.70458016095068,61.104954753266206],[-149.70454407121673,61.10522241673036],[-149.70844449604465,61.105343717984326],[-149.70840843829365,61.105611382464986],[-149.7089656489169,61.10562870237822],[-149.70892959521643,61.10589636700075],[-149.7094868111004,61.10591368481392],[-149.7094507614506,61.10618134957847],[-149.71000798259524,61.106198665291416],[-149.7099719369964,61.10646633019777],[-149.7105291634017,61.10648364381064],[-149.7104931218539,61.106751308858954],[-149.7127220521465,61.10682054143426],[-149.7127580750705,61.10655287580365],[-149.71498699641134,61.10662207186293],[-149.71502300010707,61.10635440564655],[-149.71836637230643,61.106458131486804],[-149.71833039654683,61.10672579857582],[-149.71944486808934,61.10676035617965],[-149.7194089010383,61.1070280235556],[-149.72052338430746,61.107062572466496],[-149.72048742596536,61.1073302401294],[-149.72160192096084,61.10736478034717],[-149.72156597132806,61.107632448296975],[-149.72268047804954,61.107666979821396],[-149.7226445371264,61.10793464805803],[-149.72320179604841,61.10795191059649],[-149.7231658591787,61.1082195789747],[-149.72483765353277,61.10827135354972],[-149.72480173003,61.10853902235982],[-149.72870263721728,61.10865975210585],[-149.7287385281227,61.108392082280126],[-149.72985306914197,61.10842655598873],[-149.7298889501315,61.108158885869344],[-149.73211802076835,61.10822780575388],[-149.73215388252885,61.10796013505112],[-149.73271114703613,61.10797735926223],[-149.73274700353812,61.10770968841098],[-149.73330426399045,61.10772691023117],[-149.73334011523406,61.10745923923147],[-149.73389737163143,61.1074764586607],[-149.73393321761685,61.10720878751252],[-149.7344904699592,61.107226004551016],[-149.73452631068656,61.106958333254354],[-149.7367553074439,61.10702717836911],[-149.73679112894396,61.10675950648968],[-149.73902011669375,61.10682831508964],[-149.7390559189669,61.10656064262787],[-149.74017040713412,61.10659503316266],[-149.74020619949366,61.106327360407974],[-149.74076343982188,61.10634455216182],[-149.7407992269244,61.106076879258815],[-149.7419137000697,61.10611125573945],[-149.74194947725906,61.105843582543734],[-149.7436211775108,61.10589512998637],[-149.74365694013102,61.10562745635343],[-149.74644309593762,61.1057133231166],[-149.74647883467648,61.10544564875773],[-149.74870775149247,61.10551430116387],[-149.7487434710067,61.10524662622399],[-149.75041515094404,61.10529809151341],[-149.75045085589025,61.10503041613704],[-149.75323697782028,61.105116145979565],[-149.7532726588864,61.104848469878384],[-149.75494432526156,61.104899880400346],[-149.75497999176037,61.10463220386323],[-149.7594377578403,61.10476919861528],[-149.75940212859152,61.10503687630467],[-149.7605165854046,61.105071102821405],[-149.76048096487074,61.105338780795236],[-149.76103819883036,61.10535589082853],[-149.76100258235525,61.10562356894273],[-149.7615598215691,61.10564067687397],[-149.7615242091529,61.10590835512854],[-149.76208145362097,61.105925460957735],[-149.7620458452638,61.10619313935262],[-149.76260309498616,61.10621024307969],[-149.76256749068818,61.106477921615024],[-149.76312474566487,61.10649502323975],[-149.76308914542625,61.10676270191551],[-149.76364640565725,61.106779801438066],[-149.76361080947817,61.107047480254046],[-149.76416807496352,61.10706457767437],[-149.7641324828441,61.10733225663075],[-149.76468975358384,61.10734935194881],[-149.76465416552426,61.107617031045464],[-149.76521144151843,61.10763412426115],[-149.76517585751884,61.10790180349819],[-149.7662904206132,61.10793598347853],[-149.76625484533108,61.108203662999735],[-149.76681213243123,61.10822074976437],[-149.76670541697504,61.10902378873824],[-149.76726271864482,61.109040873687974],[-149.76719158133767,61.109576233274254],[-149.7677488929199,61.10959331626508],[-149.76767776254064,61.11012867612515],[-149.7682350840356,61.11014575715711],[-149.7681639605848,61.110681117290945],[-149.7687212919928,61.11069819636395],[-149.76868573403024,61.11096587656954],[-149.76924307069328,61.1109829535398],[-149.76917196229437,61.111518314228256],[-149.76972930887086,61.111535389239364],[-149.76969375843473,61.11180306972221],[-149.7708084626947,61.11183721329262],[-149.77077292097897,61.11210489405938],[-149.77133027866242,61.11212196261837],[-149.7712947410088,61.11238964352547],[-149.77185210394745,61.11240670998165],[-149.77181657035607,61.11267439102886],[-149.77237393854992,61.11269145538217],[-149.77233840902093,61.11295913656975],[-149.77345315651547,61.112993258823636],[-149.773417635708,61.11326094029499],[-149.77397501500863,61.113277998195656],[-149.77390398092314,61.113813361415644],[-149.7744613701381,61.113830417356695],[-149.77442585686032,61.11409809910524],[-149.7749832513307,61.114115152943185],[-149.77494774211604,61.11438283483204],[-149.77550514184182,61.11439988656679],[-149.77539862459983,61.1152029326441],[-149.7759560389001,61.11521998256261],[-149.7758850337447,61.11575534688484],[-149.77644245796034,61.11577239484365],[-149.77637145974066,61.11630775943986],[-149.77692889387197,61.1163248054387],[-149.77685790258857,61.116860170309025],[-149.77741534663585,61.116877214347916],[-149.77734436228928,61.11741257949225],[-149.77790181625284,61.11742962157115],[-149.7778308388436,61.11796498698968],[-149.77838830272373,61.117982027108475],[-149.77835281778593,61.11824970995638],[-149.77891028692227,61.11826674797161],[-149.7788393245807,61.1188021139447],[-149.77939680363403,61.11881914999987],[-149.7793258482313,61.11935451624709],[-149.7798833372019,61.11937155034192],[-149.779847863268,61.119639233604225],[-149.78040535749514,61.119656265595324],[-149.7803698876267,61.11992394899791],[-149.78092738711038,61.11994097888521],[-149.78089192130753,61.12020866242803],[-149.78144942604783,61.12022569021164],[-149.78141396431073,61.120493373894625],[-149.7825289848998,61.12052742300704],[-149.78249353188997,61.12079510697351],[-149.7836085641827,61.12082914738394],[-149.78357311990047,61.12109683163389],[-149.7846881638965,61.121130863342046],[-149.78465272834222,61.1213985478754],[-149.78632531278302,61.12144957901328],[-149.7862898906187,61.121717263973075],[-149.7896351035265,61.12181926643223],[-149.7895997087382,61.1220869522477],[-149.79182988121107,61.12215490951397],[-149.79179450447623,61.12242259589834],[-149.79290960360092,61.12245656133367],[-149.79287423559623,61.12272424800104],[-149.7945469027233,61.12277517972778],[-149.7945115481113,61.12304286682086],[-149.7956266718221,61.123076810354355],[-149.7956620171097,61.12280912297555],[-149.79900737450987,61.122910898781925],[-149.79897205719595,61.12317858701756],[-149.800087190399,61.12321249459281],[-149.80015780578458,61.122677117547696],[-149.8007153639508,61.12269406767872],[-149.8007506660921,61.122426379009056],[-149.8018657748783,61.12246027224385],[-149.80190106710256,61.12219258328592],[-149.8030161689348,61.12222646724603],[-149.80305145124223,61.12195877799974],[-149.8036089983849,61.121975716466224],[-149.8036442754379,61.12170802707453],[-149.80475936217604,61.121741896980325],[-149.8047946293127,61.121474207300416],[-149.80535216890806,61.12149113873987],[-149.80538743079066,61.121223448914535],[-149.80650250243352,61.12125730476636],[-149.80653775440032,61.12098961465308],[-149.80876788614057,61.121057298819395],[-149.8087326528215,61.12132498950239],[-149.81096281267494,61.12139263828134],[-149.81099802734605,61.12112494702894],[-149.8121131014967,61.12115875764988],[-149.81214830625265,61.12089106610988],[-149.8127058395527,61.12090796790714],[-149.81267063945873,61.12117565958941],[-149.8149007972164,61.12124324487431],[-149.8149359786623,61.12097555262309],[-149.81660858919724,61.12102621756325],[-149.81664375606647,61.12075852488261],[-149.81775882338488,61.12079228998855],[-149.81779398033976,61.120524597020726],[-149.81946657175848,61.12057522739862],[-149.81943142878956,61.12084292079264],[-149.8199889651047,61.12085979323268],[-149.81995382620778,61.12112748676571],[-149.82106890993222,61.12116122518784],[-149.82103377976966,61.121428919002],[-149.8215913271789,61.121445784984026],[-149.8215562010888,61.12171347893728],[-149.8226713070012,61.121747204443025],[-149.82263618964606,61.12201489867736],[-149.82319374814918,61.12203175820098],[-149.8231586348669,61.12229945257437],[-149.82371619862212,61.122316309992534],[-149.8236810894128,61.12258400450477],[-149.82479622801694,61.122617712882615],[-149.82476112754344,61.12288540767584],[-149.83312481212027,61.12313793608062],[-149.8331598426516,61.12287023916154],[-149.84319635489115,61.12317260318019],[-149.8432313009007,61.122904903712815],[-149.84490405744833,61.12295522649378],[-149.84486912542815,61.12322292638483],[-149.84654190124442,61.12327322936101],[-149.84661173671935,61.12273782872927],[-149.8477269048761,61.1227713522442],[-149.84776181240795,61.12250365164198],[-149.84831939270254,61.12252040988695],[-149.84838919668186,61.12198500839209],[-149.84894676823657,61.12200176410741],[-149.84905145582192,61.12119866142092],[-149.84960901397417,61.121215414465674],[-149.84974857056832,61.12014461028049],[-149.85030611065628,61.12016136051376],[-149.85034099367795,61.119893659319395],[-149.85089852968926,61.11991040716433],[-149.85093340746297,61.11964270582624],[-149.85204847191775,61.119676194491866],[-149.8520833397814,61.119408492869034],[-149.85264086822474,61.11942523368984],[-149.85267573084076,61.119157531923385],[-149.8532332552073,61.11917427035587],[-149.85326811257588,61.11890656844563],[-149.85382563286552,61.11892330448999],[-149.85386048498682,61.11865560243603],[-149.85441800119958,61.11867233609226],[-149.85445284807372,61.11840463389458],[-149.85501036020958,61.118421365162604],[-149.85504520183673,61.1181536628213],[-149.85560270989566,61.11817039170122],[-149.85574205190773,61.11709958174432],[-149.8562995419045,61.11711630781389],[-149.85633437128382,61.116848605176706],[-149.8568918572038,61.11686532885828],[-149.85692668133686,61.116597626077564],[-149.85748416317998,61.11661434737113],[-149.85765825176955,61.11527583272071],[-149.8621179410987,61.11540951654457],[-149.86208316183937,61.11567722060555],[-149.86264063029506,61.115693921112076],[-149.86260585511315,61.115961625310675],[-149.86316332881398,61.115978323710586],[-149.86312855770973,61.116246028046966],[-149.86368603665576,61.116262724340174],[-149.86365126962923,61.11653042881414],[-149.8681111594965,61.11666391938476],[-149.86804169827957,61.11719933057137],[-149.86859919646122,61.11721600706092],[-149.86835609646792,61.11908994710848],[-149.86891362786753,61.11910662233321],[-149.86867053193922,61.12098056322809],[-149.8692280965607,61.12099723718789],[-149.8689850047001,61.12287117893251],[-149.87567621733626,61.12307110292123],[-149.8757108905316,61.12280339528271],[-149.88184452447226,61.12298637306223],[-149.88187914578518,61.122718663880576],[-149.8930312943752,61.1230506511548],[-149.8929967663399,61.1233183631314],[-149.90080347368414,61.12355022120273],[-149.9007690103679,61.1238179351289],[-149.90299953768198,61.12388409992662],[-149.90296509244465,61.12415181440738],[-149.9035227303839,61.124168350126354],[-149.90348828923266,61.12443606474376],[-149.90404593241487,61.12445259835406],[-149.90401149534983,61.12472031310819],[-149.90512679277842,61.1247533738632],[-149.90509236446448,61.12502108889328],[-149.90565001871084,61.12503761603793],[-149.90561559448352,61.12530533120467],[-149.90617325397284,61.125321856240575],[-149.90613883383233,61.12558957154396],[-149.9066964985646,61.12560609447103],[-149.9066276658794,61.12614152534875],[-149.90718534051982,61.12615804630595],[-149.90715092797538,61.126425761880256],[-149.9077086078589,61.12644228072843],[-149.90753655979418,61.12778085925942],[-149.90809426358277,61.12779737655491],[-149.90795663339117,61.12886823989296],[-149.90851435642082,61.1288847554966],[-149.90813587704193,61.13182963101235],[-149.90869365197983,61.13184614589748],[-149.90862483936752,61.13238157805761],[-149.90918262421724,61.13239809097247],[-149.9091138186272,61.13293352340156],[-149.90967161338895,61.13295003434606],[-149.90963721439428,61.13321775069631],[-149.91019501440113,61.13323425953132],[-149.91012622401286,61.133769692503066],[-149.91068403393217,61.13378619936749],[-149.91064964253883,61.13405391598906],[-149.91120745770334,61.13407042074389],[-149.9111730703998,61.134338137502226],[-149.91228871179692,61.134371140543976],[-149.91225433325104,61.13463885757813],[-149.91448564164574,61.13470483723327],[-149.91445128119346,61.13497255482096],[-149.9150091144032,61.13498904425184],[-149.91497475804158,61.135256761976244],[-149.9155325964964,61.13527324929732],[-149.91549824422557,61.1355409671584],[-149.9160560879255,61.13555745236963],[-149.91602173974564,61.13582517036735],[-149.91657958869072,61.13584165346864],[-149.916545244602,61.13610937160309],[-149.9171030987922,61.13612585259441],[-149.91706875879478,61.13639357086556],[-149.91762661823017,61.13641004974684],[-149.9175922823242,61.13667776815462],[-149.91870801226221,61.13671071944826],[-149.91867368511626,61.13697843813154],[-149.91923155561886,61.13699491054382],[-149.91919723256476,61.13726262936368],[-149.92031298463695,61.137295567719114],[-149.9202786703435,61.13756328681439],[-149.92139443405907,61.13759621645151],[-149.92136012852663,61.1378639358221],[-149.92191801591778,61.13788039740601],[-149.92188371447781,61.138148116913115],[-149.9229995003267,61.138181033611275],[-149.92296520764836,61.138448753393554],[-149.92352310610607,61.13846520850784],[-149.92348881752062,61.138732928426684],[-149.92516253035723,61.13878228069111],[-149.92509397947327,61.13931772135432],[-149.9256518942425,61.139334167888045],[-149.92568616530312,61.13906644741902],[-149.92680198723028,61.13909933346238],[-149.92676772550823,61.13936705420858],[-149.9278835590767,61.139399931532694],[-149.9278493061178,61.139667652553825],[-149.92840722843474,61.13968408798075],[-149.92837297956984,61.13995180913831],[-149.92948883526904,61.13998467352159],[-149.92945459516787,61.140252394954075],[-149.931686332148,61.140318097284606],[-149.9316521101504,61.14058581926862],[-149.93890537955656,61.140799105104975],[-149.93887121769302,61.14106682888399],[-149.93942917018376,61.14108321988044],[-149.9393950124163,61.14135094379568],[-149.93995297015113,61.14136733268079],[-149.9399188164799,61.14163505673217],[-149.94047677945883,61.14165144350616],[-149.94040847973528,61.14218689187932],[-149.94096645262871,61.14220327668],[-149.9408640127511,61.143006449639586],[-149.94142200022998,61.143022832605126],[-149.94135371345067,61.14355828151144],[-149.94246970881264,61.14359104124647],[-149.9424355739041,61.14385876597286],[-149.94299357711648,61.14387514260412],[-149.9429594463053,61.14414286746665],[-149.9435174547622,61.14415924198651],[-149.9434492007614,61.14469469198197],[-149.94400721913405,61.14471106452824],[-149.9439389721818,61.145246514792156],[-149.94449700047048,61.145262885364815],[-149.94442876056726,61.145798335897425],[-149.9449867987723,61.145814704496345],[-149.94478209333099,61.1474210568784],[-149.94422402709523,61.1474046874517],[-149.9441557780167,61.14794013795549],[-149.94359770301034,61.14792376600309],[-149.94356357293856,61.14819149111442],[-149.94412165261716,61.148207863204775],[-149.94405340009737,61.148743313697935],[-149.94461148969418,61.14875968381452],[-149.9445432442251,61.14929513457665],[-149.94510134374036,61.149311502719335],[-149.94506722481816,61.14957922823578],[-149.9456253295795,61.149595594266465],[-149.94559121475655,61.14986331991906],[-149.946149324764,61.1498796838379],[-149.94611521404045,61.150147409626726],[-149.94667332929407,61.15016377143352],[-149.9466392226701,61.15043149735851],[-149.94719734316985,61.15044785705328],[-149.94716324064555,61.150715583114504],[-149.9477213663915,61.15073194069719],[-149.9476872679671,61.150999666894705],[-149.94880353052454,61.15103237558572],[-149.94876944087335,61.15130010205719],[-149.9543508347599,61.151463511889155],[-149.95431679126915,61.151731239736534],[-149.95487493847975,61.15174756848213],[-149.95484089909024,61.15201529646542],[-149.95539905154652,61.15203162309853],[-149.95536501625844,61.152299351217835],[-149.95592317396037,61.15231567573857],[-149.95588914277388,61.15258340399384],[-149.95644730572158,61.15259972640198],[-149.95641327863683,61.15286745479328],[-149.95697144683027,61.15288377508884],[-149.95693742384736,61.153151503616094],[-149.95749559728662,61.15316782179904],[-149.95742755895307,61.15370327912395],[-149.9579857423122,61.15371959533185],[-149.95795172696174,61.1539873241294],[-149.9585099155668,61.15400363822467],[-149.9584759043188,61.15427136715821],[-149.9590340981698,61.15428767914065],[-149.95896608330725,61.15482313727821],[-149.9600824914217,61.15485575504224],[-149.9600484924819,61.15512348438371],[-149.9639559716038,61.155237576634384],[-149.9639220048149,61.155505306936185],[-149.9650384419108,61.15553788474356],[-149.9650044839004,61.15580561531847],[-149.96612093262937,61.155838184398924],[-149.9660869833979,61.15610591524698],[-149.9672034437596,61.15613847560026],[-149.96716950330736,61.15640620672142],[-149.96772773901913,61.1564224836596],[-149.9676938026714,61.156690214916495],[-149.96881028515665,61.15672276231596],[-149.96877635758878,61.15699049384579],[-149.96933460436222,61.157006764306914],[-149.96930068089924,61.1572744959725],[-149.9698589329183,61.157290764320365],[-149.96979109363218,61.15782622792157],[-149.97034935557238,61.15784249429315],[-149.97028152335636,61.15837795816288],[-149.97083979521796,61.15839422255826],[-149.97077197007258,61.158929686696695]]]},"id":"globalwatershed","properties":{}}],"bbox":[-149.97083979521796,61.04857748223917,-149.49673649679238,61.18223364314632]}