{"type":"FeatureCollection","features":[{"type":"Feature","geometry":{"type":"Point","coordinates":[-149.23144331025856,61.710238851091766]},"id":"globalwatershedpoint","properties":{}},{"type":"Feature","geometry":{"type":"Polygon","coordinates":[[[-149.31968142836357,61.743993866205926],[-149.31960118338506,61.744529046764555],[-149.3190328113651,61.74451015558722],[-149.31895255395906,61.745045335858535],[-149.31838417294563,61.74502644206481],[-149.31834403837198,61.745294032051945],[-149.31777565320527,61.745275135804945],[-149.3176552308409,61.74607790533517],[-149.31708683184002,61.7460590063083],[-149.31700653714688,61.74659418571748],[-149.31643812915195,61.74657528407396],[-149.3162373561875,61.74791323195199],[-149.3156689246755,61.747894327201784],[-149.3155484381243,61.74869709555651],[-149.31497999277622,61.748678188025984],[-149.3148996552882,61.74921336665155],[-149.314331200945,61.749194456504],[-149.31421067503067,61.749997224026124],[-149.31364220685052,61.74997831109806],[-149.31344129236078,61.75131625634856],[-149.3140097847504,61.75133517009363],[-149.31396960463073,61.75160275933677],[-149.3151066011579,61.7516405802822],[-149.31506643003482,61.75190816986201],[-149.31563493417232,61.751927077062284],[-149.31559476720383,61.75219466681538],[-149.31616327687144,61.75221357188844],[-149.31612311405772,61.75248116181479],[-149.3166916292554,61.75250006476053],[-149.31661131125017,61.75303524496977],[-149.31717983682066,61.75305414595154],[-149.31689873604333,61.754927278140876],[-149.31746729620235,61.75494617797519],[-149.31738698519285,61.75548135901725],[-149.31681841534711,61.75546245885634],[-149.31665776570253,61.75653282040725],[-149.31608917717003,61.756513917302115],[-149.31596866818376,61.75731668808051],[-149.31540006580747,61.75729778219442],[-149.31523935815213,61.75836814271954],[-149.31467073708725,61.75834923388869],[-149.31463055360908,61.758616823881695],[-149.31406192838796,61.7585979125964],[-149.31402173937724,61.75886550243611],[-149.31345310999993,61.75884658869629],[-149.3134129154565,61.759114178382575],[-149.31284428192305,61.7590952621882],[-149.31280408184674,61.75936285172111],[-149.31223544415715,61.759343933072095],[-149.31215503225002,61.75987911184108],[-149.3115863855597,61.759860190573995],[-149.31146574800036,61.76066295831254],[-149.3103284276168,61.760625107923474],[-149.31028820402975,61.76089269686277],[-149.30915087671173,61.760854836981686],[-149.3091106427458,61.76112242560382],[-149.30854197527526,61.76110349206287],[-149.3085017357752,61.76137108053142],[-149.30793306414876,61.76135214453564],[-149.30789281911441,61.761619732850626],[-149.3073241433321,61.76160079439979],[-149.30724364150518,61.762135970732814],[-149.30667495672168,61.76211702966339],[-149.30659444244657,61.76265220570945],[-149.3060257486618,61.762633262021225],[-149.3059452219377,61.76316843778032],[-149.30537651915145,61.763149491473285],[-149.30529597997761,61.76368466694541],[-149.3047272681897,61.76366571801938],[-149.30464671656537,61.76420089320455],[-149.30521543804494,61.76421984245823],[-149.305175166044,61.76448743022982],[-149.3057438930593,61.76450637735581],[-149.30570362521462,61.764773965301394],[-149.30627235776566,61.764792910299725],[-149.30619182969963,61.765328086549104],[-149.3067605726327,61.76534702958343],[-149.30672031241156,61.76561461788716],[-149.30728906088055,61.76563355879379],[-149.30724880481623,61.765901147271514],[-149.3078175588212,61.76592008605027],[-149.30777730691386,61.766187674701875],[-149.30834606645485,61.766206611352885],[-149.30830581870472,61.76647420017843],[-149.309443349548,61.766512066932975],[-149.30940311080195,61.76677965609619],[-149.30997188210424,61.76679858619966],[-149.3099316475158,61.76706617553685],[-149.31050042435413,61.76708510351226],[-149.31046019392346,61.7673526930233],[-149.31102897629788,61.76737161887082],[-149.3109082954125,61.768174387956506],[-149.3114770930174,61.76819331200312],[-149.31131619491268,61.769263671582706],[-149.3118850125964,61.76928259399208],[-149.31176434632584,61.77008536427596],[-149.31233317924185,61.7701042848842],[-149.31221252131388,61.77090705575216],[-149.31278136946293,61.770925974559276],[-149.312459623458,61.773066698639276],[-149.31189073652115,61.773047778523214],[-149.31177005585317,61.773850549734206],[-149.3112011550587,61.77383162683508],[-149.31116092194193,61.77409921709597],[-149.31059201698773,61.77408029174115],[-149.31055177833247,61.77434788184872],[-149.30998286921852,61.774328954038],[-149.30994262502463,61.77459654399238],[-149.30880479916695,61.774558681166845],[-149.30876454458505,61.77482627080427],[-149.30819562784146,61.77480733578944],[-149.30815536772053,61.77507492527348],[-149.3075864468174,61.775055987802695],[-149.30754618115728,61.77532357713342],[-149.30697725609468,61.77530463720653],[-149.30693698489523,61.77557222638394],[-149.30636805567318,61.77555328400101],[-149.30632777893422,61.77582087302494],[-149.30575884555276,61.77580192818588],[-149.3057185632741,61.776069517056534],[-149.30514962573324,61.77605056976129],[-149.30510933791479,61.776318158478496],[-149.30454039621458,61.77629920872713],[-149.3045001028561,61.77656679729088],[-149.30336221182756,61.77652889058326],[-149.30332190807917,61.776796478829695],[-149.30275295875097,61.77677752187344],[-149.30271264946217,61.77704510996629],[-149.30214369597482,61.77702615055379],[-149.3021033811455,61.7772937384931],[-149.30153442349902,61.777274776624225],[-149.30145378206802,61.77780995220638],[-149.3008848154125,61.77779098771702],[-149.30084448881058,61.77805857535984],[-149.3014134603162,61.77807754001324],[-149.30137313787347,61.7783451278305],[-149.3019421149202,61.778364090355566],[-149.3017808376413,61.77943444238595],[-149.30121184119298,61.779415479204886],[-149.3011715152954,61.779683067074735],[-149.3006025146875,61.779664101437056],[-149.30052185111782,61.78019927688036],[-149.29995284149965,61.780180308621944],[-149.29987216546374,61.780715483779254],[-149.2993031468351,61.780696512900015],[-149.29902072497543,61.78256962513427],[-149.29845167307977,61.78255065081346],[-149.29820954112293,61.78415617501387],[-149.29877862212894,61.7841751503196],[-149.2984154211772,61.78658343881572],[-149.2978462965001,61.786564462032246],[-149.2978059325276,61.786832049532094],[-149.29837506205746,61.78685102647981],[-149.29833470224602,61.7871186141545],[-149.29947297308664,61.78715656149899],[-149.29939227080038,61.78769173753733],[-149.29996141696412,61.78771070809819],[-149.29988072161768,61.788245884507795],[-149.30044987817942,61.78826485310386],[-149.3002884986011,61.789335206708415],[-149.30085767526816,61.78935417366784],[-149.30069630403983,61.79042452810127],[-149.30126550081363,61.79044349342388],[-149.3011041379368,61.79151384868669],[-149.30167335481872,61.79153281237242],[-149.30155233996317,61.79233557942553],[-149.30212157209994,61.792354541310196],[-149.3020409017813,61.792889719728045],[-149.3026101443189,61.792908679647496],[-149.3025698129772,61.793176269036785],[-149.30313906106096,61.79319522682669],[-149.30309873388276,61.793462816391056],[-149.30366798751282,61.79348177205144],[-149.3036276644983,61.79374936179069],[-149.30419692367462,61.79376831532155],[-149.30415660482393,61.794035905235795],[-149.3052951349604,61.79407380574476],[-149.30525482512888,61.79434139599796],[-149.30639336774013,61.794379287660355],[-149.3063530669282,61.79464687825243],[-149.3074916220138,61.79468476106813],[-149.3074110377392,61.79521994294093],[-149.30798032602922,61.79523888123616],[-149.3079400377114,61.795506472352855],[-149.30850933154778,61.795525408518195],[-149.30842876255147,61.796060591112365],[-149.3078594590035,61.79604165461919],[-149.30777887753254,61.79657683692941],[-149.30720956496347,61.79655789781458],[-149.30708867300757,61.79736067087043],[-149.306519346561,61.797341728969755],[-149.30619689875675,61.79948245629147],[-149.30562753414875,61.79946351078487],[-149.3055469055725,61.79999869239756],[-149.30440815900252,61.79996079384611],[-149.30436783396334,61.80022838434093],[-149.30379845685843,61.800209431460054],[-149.30375812627068,61.80047702180179],[-149.30318874500023,61.80045806646272],[-149.3031484088637,61.80072565665146],[-149.3025790234277,61.80070669885418],[-149.30253868174228,61.80097428888975],[-149.3019692921408,61.80095532863418],[-149.30188859697992,61.80149050841035],[-149.3013191983556,61.80147154553229],[-149.3012384907122,61.80200672502443],[-149.30066908306483,61.801987759523705],[-149.30046727755715,61.80332570762722],[-149.30103670949336,61.80334467394896],[-149.30095599216133,61.80387985359655],[-149.3015254345058,61.803898817952536],[-149.3014447241218,61.804433997973106],[-149.30201417687485,61.80445296036301],[-149.30193347343936,61.80498814075659],[-149.30250293660131,61.80500710118056],[-149.30242224011496,61.80554228194722],[-149.3029917136861,61.80556124040512],[-149.30278998465482,61.806899193338424],[-149.30222048678908,61.80688023405959],[-149.30213978061437,61.807415414983055],[-149.30157027372232,61.80739645308124],[-149.30148955506047,61.807931633721125],[-149.30092003914191,61.807912669196156],[-149.3008796739132,61.808180259368754],[-149.3003101538275,61.80816129238491],[-149.30026978304693,61.80842888240448],[-149.29970025879416,61.80840991296175],[-149.29961950543648,61.80894509270584],[-149.29848043957008,61.80890714627913],[-149.29844005213297,61.809174735839456],[-149.29616190927467,61.80909881479202],[-149.29612150170578,61.809366403705994],[-149.29270427905368,61.80925245230704],[-149.29274471578057,61.80898486438006],[-149.2916056568301,61.80894686255184],[-149.29156521038396,61.80921445014975],[-149.2909956770897,61.809195445629115],[-149.29095522509022,61.80946303307367],[-149.2898161508639,61.80942501681903],[-149.28977568845116,61.809692603945464],[-149.28863660728152,61.80965457818276],[-149.28859613445525,61.809922164991164],[-149.2874570463429,61.80988412972018],[-149.28741656310282,61.81015171621033],[-149.28627746804835,61.81011367143095],[-149.2862369743942,61.81038125760279],[-149.28509787239832,61.81034320331493],[-149.2850573683298,61.810610789168415],[-149.28448781351403,61.81059175841753],[-149.2844473038908,61.8108593441173],[-149.28387774490997,61.810840310906826],[-149.2836751620698,61.81217823875015],[-149.2825359975914,61.812140163795995],[-149.2824954692176,61.81240774906856],[-149.28245494014854,61.81267533435238],[-149.28359412406874,61.8127134099663],[-149.28351308328743,61.813248581227455],[-149.28408268601143,61.81326761592176],[-149.2840421694389,61.81353520173412],[-149.28461177771868,61.813554234298365],[-149.284571265312,61.81382182028694],[-149.2851408791476,61.81384085072108],[-149.2850193523408,61.81464360924906],[-149.28558898145448,61.814662637882755],[-149.2855079698312,61.81519781062108],[-149.28607760936228,61.81521683728933],[-149.28603710736974,61.815484423840246],[-149.28660675245703,61.815503448378266],[-149.28656625463117,61.81577103510543],[-149.28648525689516,61.81630620859379],[-149.28591559722304,61.81628718356135],[-149.28583458698427,61.81682235676558],[-149.28526491828347,61.816803329108254],[-149.2852244072598,61.81707091556262],[-149.28465473439212,61.817051885445196],[-149.2845737005357,61.8175870580582],[-149.28400401863914,61.817568025315815],[-149.28392297227788,61.81810319764458],[-149.28335328135222,61.818084162277],[-149.28327222248538,61.81861933432163],[-149.2827025225305,61.81860029632885],[-149.28258091442743,61.81940305398642],[-149.28201120058057,61.819384013203376],[-149.28193011530902,61.819919184702194],[-149.2813603924324,61.81990014129376],[-149.28131984389043,61.820167726895384],[-149.28075011684672,61.820148681026524],[-149.2805473393855,61.82148660838088],[-149.27997758872263,61.82146755939122],[-149.2798964631404,61.82200273008307],[-149.27932670344697,61.82198367846772],[-149.27928613474845,61.822251263665784],[-149.27871637088774,61.82223220958973],[-149.27867579662964,61.82249979463416],[-149.27810602860168,61.82248073809736],[-149.27806544878385,61.82274832298816],[-149.27749567658864,61.82272926399062],[-149.27745509121095,61.822996848727705],[-149.27688531484858,61.822977787269316],[-149.27684472391078,61.823245371852735],[-149.27627494338128,61.823226307933524],[-149.27623434688326,61.8234938923632],[-149.27566456218662,61.82347482598313],[-149.2756239601282,61.82374241025911],[-149.27505417126454,61.82372334141807],[-149.27501356364553,61.8239909255403],[-149.27444377061482,61.82397185423834],[-149.2744031574351,61.82423943820674],[-149.2738333602374,61.824220364443775],[-149.27379274149678,61.82448794825839],[-149.27322294013211,61.82446887203444],[-149.2731823158304,61.8247364556952],[-149.27261251029884,61.82471737701015],[-149.27257188043592,61.82498496051711],[-149.27200207073744,61.82496587937093],[-149.27196143531316,61.82523346272411],[-149.27139162144783,61.825214379116765],[-149.2713103387787,61.82574954552671],[-149.27074051588224,61.825730459292814],[-149.27069986863717,61.825998042349646],[-149.271269696398,61.826017128749015],[-149.27114776507108,61.82681987848512],[-149.27057792271657,61.826800791589456],[-149.27053727268122,61.82706837469249],[-149.2699674261596,61.82704928533558],[-149.26984545727325,61.82785203421764],[-149.26927559685484,61.82783294206835],[-149.2691942710451,61.828368107716564],[-149.26862440159445,61.82834901294035],[-149.26854306326288,61.828884178303916],[-149.26797318477978,61.82886508090064],[-149.26793250970175,61.829132663434216],[-149.26850239305014,61.82915176100316],[-149.26846172213936,61.82941934371391],[-149.2690316110512,61.82943843915223],[-149.26890960872745,61.830241187850845],[-149.26947951293394,61.83026028148968],[-149.26939818429312,61.83079544767793],[-149.26996809892918,61.830814539351614],[-149.2699274384278,61.83108212262874],[-149.27049735862764,61.831101212171696],[-149.27041604526337,61.83163637909189],[-149.27098597589324,61.83165546666962],[-149.2709453230306,61.831923050312675],[-149.27208519611594,61.83196121891017],[-149.27167872644338,61.83463705929364],[-149.27110874088478,61.83461797448853],[-149.27106808521287,61.834885558425874],[-149.27049809548495,61.83486647115878],[-149.27045743424793,61.83513405494242],[-149.26988744035077,61.83511496521326],[-149.2694807409118,61.83779080204261],[-149.2689106990362,61.837771708361394],[-149.2687479802379,61.83884204276153],[-149.26817791958777,61.8388229461212],[-149.2681372332738,61.83909052958528],[-149.26756716845378,61.839071430482576],[-149.26752647657284,61.839339013792774],[-149.26638633929173,61.839300808365934],[-149.2663456369751,61.8395683913566],[-149.26520549275207,61.8395301764111],[-149.26516477999948,61.839797759082344],[-149.26459470406778,61.8397786479987],[-149.2645539857476,61.840046230515966],[-149.26398390564634,61.840027116969736],[-149.26386173188496,61.840829864095475],[-149.2632916378765,61.840810747755114],[-149.26321017546832,61.84134591223342],[-149.26264007242125,61.84132679326438],[-149.26255859747752,61.84186195745856],[-149.26198848539164,61.841842835861016],[-149.26186625312224,61.84264558174388],[-149.261296127128,61.84262645735179],[-149.2612553767696,61.84289403917068],[-149.26068524660556,61.842874912315736],[-149.260644490678,61.84314249398065],[-149.26007435634423,61.84312336466268],[-149.26003359484724,61.84339094617362],[-149.25718290933034,61.843295264298305],[-149.25714212278538,61.84356284499129],[-149.256571982913,61.84354370155904],[-149.25653119079806,61.84381128209784],[-149.25596104675645,61.843792136202445],[-149.2559202490714,61.84405971658711],[-149.2553501008606,61.84404056822858],[-149.25526849364934,61.84457572870142],[-149.2541281798504,61.84453742442858],[-149.25408736545396,61.84480500435062],[-149.25351720473574,61.84478584860239],[-149.2534763847686,61.8450534283702],[-149.2529062198813,61.845034270158635],[-149.25286539434316,61.845301849772255],[-149.25172505693172,61.84526352612527],[-149.25168422095234,61.84553110541831],[-149.25111404842826,61.84551193998286],[-149.2510732068776,61.845779519121606],[-149.2505030301847,61.845760351222694],[-149.25046218306247,61.84602793020708],[-149.24989200220074,61.84600875984473],[-149.24985114950687,61.84627633867466],[-149.24871078014746,61.8462379907257],[-149.2486699170114,61.846505569234985],[-149.2475295407181,61.846467211764356],[-149.24748866713958,61.84673478995288],[-149.24634828391302,61.846696422960434],[-149.24630739989178,61.84696400082807],[-149.24516700973254,61.84692562431376],[-149.24512611526833,61.84719320186052],[-149.24341552068506,61.84713561936014],[-149.24337461090707,61.84740319641924],[-149.24109380848282,61.84732638692423],[-149.2411347377426,61.84705881053137],[-149.23999435048793,61.8470203923336],[-149.24003528878555,61.846752816285886],[-149.23889491408335,61.84671438923251],[-149.23893586141838,61.84644681353004],[-149.2383656799921,61.84642759672415],[-149.23840663149412,61.84616002120037],[-149.23726628049135,61.84612158103054],[-149.2373072410301,61.84585400585202],[-149.23673707145363,61.84583478248814],[-149.23677803615894,61.84556720748828],[-149.2362078721557,61.845547981993974],[-149.23624884102736,61.845280407172694],[-149.2351085248709,61.8452419496264],[-149.23506754625978,61.84550952411413],[-149.23278690291224,61.84543258078936],[-149.23274590411845,61.84570015462146],[-149.23217574017153,61.84568091288072],[-149.23213473580395,61.84594848655777],[-149.2309944002829,61.845909995850974],[-149.2309533854715,61.84617756920609],[-149.22924287286264,61.84611981541658],[-149.2292018427373,61.846387388282544],[-149.2274913218596,61.846329613317906],[-149.22745027641994,61.846597185694456],[-149.22516957230428,61.846520119580234],[-149.22512850668008,61.84678769130009],[-149.2245583275439,61.84676841886154],[-149.22464046782687,61.84623327576778],[-149.2240702991356,61.84621400136652],[-149.22411137308902,61.84594643000457],[-149.22354120997272,61.84592715347335],[-149.22358228809048,61.84565958229041],[-149.22301213054914,61.8456403036293],[-149.22305321283105,61.84537273262533],[-149.22248306086462,61.84535345183445],[-149.22252414731057,61.845085881009574],[-149.22195400091897,61.84506659808892],[-149.22199509152878,61.84479902744301],[-149.22142495071202,61.84477974239257],[-149.2215071395534,61.844244601470606],[-149.2180863679027,61.84412884494006],[-149.2181274904789,61.84386127550067],[-149.21698724864746,61.84382267195001],[-149.21702838025527,61.84355510285708],[-149.21645826526762,61.8435357978038],[-149.21649940103794,61.843268228890096],[-149.21535918291892,61.843229612227965],[-149.2154003277202,61.842962043660826],[-149.21426012216398,61.84292341814633],[-149.2136900204457,61.8429041019439],[-149.21364886103876,61.8431716700085],[-149.21307875515865,61.84315235134177],[-149.21303759017644,61.84341991925047],[-149.21189737079933,61.84338127469141],[-149.21185619537303,61.843648842276636],[-149.20957574562834,61.84357152492594],[-149.20953455002035,61.8438390918523],[-149.2072540921178,61.84376173708146],[-149.2072128763277,61.84402930334853],[-149.2055025257248,61.84397126265034],[-149.20546129462087,61.8442388284257],[-149.20432105468768,61.844200122807095],[-149.20427981313833,61.8444676882584],[-149.20370968936507,61.84444833183587],[-149.2036684422388,61.844715897130996],[-149.20309831430495,61.84469653824372],[-149.2030570616016,61.84496410338251],[-149.20248692950716,61.8449447420305],[-149.20244567122657,61.84521230701307],[-149.20187553497163,61.84519294319612],[-149.20183427111365,61.845460508022434],[-149.2012641306982,61.84544114174068],[-149.20118159111843,61.84597627109239],[-149.2006114416734,61.84595690217769],[-149.20057016595138,61.84622446670304],[-149.19942985944914,61.846185721646634],[-149.19938857327983,61.84645328584758],[-149.19824825987473,61.84641453126721],[-149.19820696325786,61.84668209514373],[-149.1885143311218,61.84635230739094],[-149.18847295101904,61.84661986841854],[-149.187902797709,61.84660044829808],[-149.18786141202656,61.846868009168766],[-149.187291254558,61.846848586582816],[-149.1872498632957,61.84711614729678],[-149.18667970166865,61.84709672224537],[-149.1865969072733,61.847631843371126],[-149.18602673661846,61.84761241568577],[-149.1859439296408,61.84814753652119],[-149.18537374995802,61.84812810620161],[-149.1853323405332,61.848395666468186],[-149.1847621566919,61.84837623368313],[-149.18472074168636,61.848643793792846],[-149.18415055368658,61.84862435854198],[-149.1841091331002,61.84889191849479],[-149.18296874949516,61.84885304076474],[-149.182927318458,61.849120600392],[-149.18235712285286,61.84910115791265],[-149.18231568623443,61.84936871738284],[-149.18174548647104,61.849349272437834],[-149.18166260135976,61.84988439107582],[-149.1810923925682,61.84986494349622],[-149.18105094407503,61.85013250266408],[-149.1804807311252,61.850113052618575],[-149.1804392770502,61.85038061162936],[-149.1792988435461,61.850341704309336],[-149.17925737901894,61.85060926299426],[-149.17868715846478,61.85058980571975],[-149.17864568835537,61.8508573642476],[-149.17180303883507,61.85062369574592],[-149.17176150957164,61.850891252258336],[-149.17062106822505,61.850852275009466],[-149.17057952850823,61.851119831195355],[-149.1700093040348,61.85110033895606],[-149.16996775873446,61.85136789498454],[-149.16939753010433,61.851348400278944],[-149.16935597922028,61.85161595614983],[-149.16878574643349,61.85159645897788],[-149.1687441899656,61.85186401469131],[-149.16817395302215,61.85184451505305],[-149.16813239097024,61.85211207060896],[-149.166991909484,61.85207306410226],[-149.16695033697752,61.85234061933141],[-149.16295864017613,61.852204023009946],[-149.1629170328628,61.852471577065664],[-149.16177654475115,61.85243252853139],[-149.16173492698243,61.85270008225994],[-149.16059443198884,61.85266102419777],[-149.1605528037645,61.852928577599144],[-149.15998255246956,61.852909044952746],[-149.1599409186598,61.853176598196406],[-149.15937066320933,61.85315706308317],[-149.159329023814,61.853424616168894],[-149.15875876420805,61.853405078588985],[-149.15871711922694,61.853672631516865],[-149.1581468554656,61.85365309147009],[-149.15806355361624,61.854188197021806],[-149.15749328082867,61.85416865433853],[-149.1574099663762,61.85470375959782],[-149.15683968456233,61.85468421427808],[-149.15679802139195,61.8549517667556],[-149.1562277354226,61.85493221896882],[-149.15614439719292,61.85546732361977],[-149.15557410219702,61.85544777319641],[-149.15549075136215,61.8559828775548],[-149.15492044733955,61.85596332449459],[-149.15483708389874,61.856498428560506],[-149.1542667708492,61.856478872863526],[-149.15422508318346,61.85674642474433],[-149.15365476597842,61.856726866580075],[-149.15361307272508,61.85699441830289],[-149.15304275136458,61.8569748576714],[-149.1530010525235,61.85724240923615],[-149.15186040220794,61.857203280741075],[-149.15181869290726,61.85747083197811],[-149.14896705529824,61.857372969684],[-149.14900878895708,61.85710541929631],[-149.1467275112581,61.85702708878494],[-149.14668575811308,61.85729463849302],[-149.14326383385114,61.85717707278077],[-149.1433056162249,61.85690952409284],[-149.14216499028723,61.85687031748224],[-149.1422485723669,61.85633522082182],[-149.14167827021717,61.85631561441055],[-149.14172006505146,61.8560480662679],[-149.1400091775227,61.855989233760155],[-149.14005098625216,61.85572168613963],[-149.13662925980992,61.855603960115886],[-149.13667109704622,61.85533641352855],[-149.13553053705436,61.8552971534824],[-149.13557238331347,61.85502960724723],[-149.13443183593762,61.85499033835259],[-149.13447369121917,61.85472279246965],[-149.13390342347995,61.85470315474685],[-149.13394528291312,61.85443560904579],[-149.13280475933226,61.85439632704913],[-149.1328466277872,61.85412878170052],[-149.13113586241974,61.85406984198753],[-149.13117774476626,61.853802297161785],[-149.12946700048263,61.85374333728547],[-149.12950889672004,61.85347579298282],[-149.12836841386834,61.853436475253844],[-149.12841031912612,61.853168931303905],[-149.1272698488928,61.853129604727435],[-149.12731176317058,61.85286206113016],[-149.12617130555594,61.85282272570656],[-149.1262132288533,61.85255518246194],[-149.12507278385777,61.85251583819132],[-149.12511471617432,61.85224829529952],[-149.12169342768942,61.85213020838289],[-149.12112321546348,61.85211051919057],[-149.12108124906052,61.85237806088706],[-149.12051103268578,61.852358369226835],[-149.1204690606927,61.852625910764004],[-149.11989884016924,61.852606216635934],[-149.11994081703182,61.852338675269614],[-149.1136684924311,61.852121890137816],[-149.11362646200556,61.85238942962337],[-149.11305625013776,61.85236970793113],[-149.1130142141211,61.852637247257036],[-149.11187378281255,61.852597796639316],[-149.1118317363353,61.85286533563427],[-149.11069129817614,61.85282587548623],[-149.11064924123795,61.853093414150344],[-149.11007901837226,61.853073680459566],[-149.11003695584236,61.85334121896386],[-149.10889650253904,61.85330174434877],[-149.1088544295477,61.85356928252205],[-149.10828419911024,61.85354954159772],[-149.10824212052682,61.85381707961105],[-149.10767188594238,61.85379733621836],[-149.10762980176665,61.85406487407184],[-149.10705956303525,61.8540451282108],[-149.1070174732671,61.85431266590427],[-149.1064472303888,61.85429291757488],[-149.10640513502804,61.85456045510847],[-149.10583488800287,61.85454070431054],[-149.10579278704932,61.85480824168425],[-149.10522253587735,61.85478848841783],[-149.10518042933086,61.855056025631555],[-149.10461017401207,61.85503626989655],[-149.10456806187247,61.85530380695032],[-149.10114651593042,61.855185223271846],[-149.10110437384762,61.85545275930808],[-149.10053411385323,61.8554329871502],[-149.10049196617666,61.85570052302624],[-149.09992170203608,61.85568074839963],[-149.09983739477113,61.856215819842916],[-149.09926712161428,61.85619604257589],[-149.09918280171294,61.85673111372168],[-149.09861251953964,61.856711333814246],[-149.09827517200426,61.858851617481974],[-149.09770485158992,61.85883183390391],[-149.09766267501777,61.85909936924228],[-149.09709235045685,61.859079583195275],[-149.09700798539703,61.85961465356306],[-149.0964376518184,61.85959486487516],[-149.09626889351875,61.86066500506169],[-149.09683924658285,61.860684794436594],[-149.0965861166229,61.862290006092536],[-149.09601573432826,61.862270215687154],[-149.0954249280709,61.86601570876613],[-149.09485447828496,61.865995913657954],[-149.09481226752743,61.866263448793134],[-149.09424181359347,61.86624365121521],[-149.09419959723752,61.86651118619023],[-149.09362913915555,61.866491386142464],[-149.093586917201,61.8667589209572],[-149.09301645497106,61.86673911843965],[-149.09293199913898,61.86727418776039],[-149.0923615278877,61.867254382601025],[-149.0923192940099,61.86752191710694],[-149.09174881861065,61.867502109477634],[-149.09170657913364,61.86776964382327],[-149.0911360995865,61.867749833724055],[-149.09109385451018,61.86801736790929],[-149.09052337081513,61.867997555340075],[-149.0904811201393,61.86826508936512],[-149.0887696587887,61.86820563735304],[-149.08872739276563,61.868473170873635],[-149.08758641241502,61.86843352436452],[-149.08754413591817,61.868701057552514],[-149.08640314872534,61.868661401506984],[-149.0863608617544,61.86892893436243],[-149.0857903643739,61.868909102720345],[-149.0854520034561,61.87104936460733],[-149.08374039869466,61.87098985175959],[-149.08369808568608,61.87125738403143],[-149.080274866548,61.87113829525017],[-149.08010549025144,61.872208420318785],[-149.0795349367759,61.87218856345514],[-149.0794502345124,61.87272362571493],[-149.0788796720149,61.872703766208176],[-149.0787949570905,61.87323882817],[-149.0782243855709,61.87321896602011],[-149.07813965798488,61.87375402768386],[-149.07756907744294,61.87373416289064],[-149.07752670768275,61.87400169356764],[-149.07695612299364,61.87398182630351],[-149.07687137153837,61.87451688734779],[-149.07630077782673,61.87449701744024],[-149.07625839613138,61.87476454780746],[-149.07568779827255,61.87474467542876],[-149.07556063418988,61.875547266083494],[-149.07499002243273,61.87552739088866],[-149.07490523298395,61.876062451038806],[-149.07376399215218,61.87602269306309],[-149.07372158658322,61.87629022281056],[-149.0731509623845,61.87627034020223],[-149.07310855121088,61.876537869788876],[-149.07196729524816,61.876498097331144],[-149.07192487359367,61.87676562658416],[-149.07135424182982,61.87674573673469],[-149.0713118145703,61.87701326582677],[-149.0701705434779,61.87697347888663],[-149.07012810573704,61.87724100764503],[-149.06955746640864,61.87722111055428],[-149.06947257898662,61.8777561677608],[-149.06890193063526,61.87773626802582],[-149.06885948095382,61.87800379647403],[-149.06828882845565,61.87798389426752],[-149.06820391715138,61.878518950853525],[-149.06763325563003,61.87849904600269],[-149.0675907940069,61.87876657414061],[-149.06702012833884,61.87874666681807],[-149.06697766110938,61.87901419479497],[-149.06640699129454,61.878994285000864],[-149.06636451845858,61.87926181281659],[-149.0652231712656,61.87922198598635],[-149.0651806879463,61.87948951346795],[-149.06461001056826,61.879469596431804],[-149.06456752164206,61.8797371237523],[-149.06399684011754,61.87971720424438],[-149.06395434558428,61.87998473140363],[-149.06338365991326,61.879964809423946],[-149.0633411597728,61.88023233642202],[-149.0627704699553,61.88021241197048],[-149.0626854577291,61.880747465656064],[-149.06211475888819,61.88072753855949],[-149.0620722468022,61.88099506524698],[-149.06150154381484,61.88097513567854],[-149.06141650769638,61.881510188742865],[-149.06084579568545,61.88149025652931],[-149.06027508440536,61.881470322016945],[-149.06031761258438,61.881202795825125],[-149.05974690691244,61.88118285918702],[-149.05983197083185,61.880647807185234],[-149.059261275645,61.880627868594644],[-149.05930381138515,61.88036034278458],[-149.05873312180626,61.880340402068384],[-149.05877566169218,61.88007287644335],[-149.0582049777212,61.880052933601554],[-149.05824752175272,61.87978540816157],[-149.05767684338963,61.87976546319417],[-149.05771939156662,61.87949793793921],[-149.05714871881133,61.87947799084629],[-149.0571912711336,61.87921046577634],[-149.05662060398615,61.879190516558054],[-149.05666316045352,61.87892299167318],[-149.0560924989138,61.878903040329426],[-149.05613505952616,61.87863551562957],[-149.0555644035942,61.87861556216042],[-149.0556069683513,61.87834803764553],[-149.0544656684343,61.87830812415804],[-149.05450824221208,61.878040600001505],[-149.0539375982271,61.8780206399831],[-149.05398017614925,61.87775311601174],[-149.05340953777193,61.877733153868135],[-149.05345211983828,61.87746563008177],[-149.0528814870686,61.87744566581292],[-149.05292407327897,61.877178142211676],[-149.0523534461169,61.8771581758178],[-149.05239603647112,61.876890652401585],[-149.0518254149166,61.87687068388256],[-149.05186800941448,61.876603160651406],[-149.0512973934675,61.87658319000734],[-149.05133999210895,61.876315666961375],[-149.05076938176947,61.87629569419218],[-149.05081198455423,61.87602817133128],[-149.0502413798222,61.876008196437056],[-149.05032659294596,61.87547315109718],[-149.0497559986965,61.875453174251575],[-149.04984121864186,61.87491812930519],[-149.04927063487466,61.874898150508095],[-149.04935586164106,61.87436310595516],[-149.0487852883558,61.87434312520681],[-149.04882790551537,61.874075603121284],[-149.0482573378371,61.87405562024801],[-149.0483851995458,61.873253054581454],[-149.04781464722348,61.87323306993053],[-149.04785727120273,61.87296554823839],[-149.04842781865074,61.8729855327157],[-149.04851305466372,61.87245048901901],[-149.0490835930955,61.87247047085118],[-149.0492114270011,61.871667904872346],[-149.04864090319137,61.871647923560616],[-149.04872613188218,61.87111287997939],[-149.0481556185523,61.87109289671651],[-149.0482408540617,61.87055785352841],[-149.04767035121134,61.87053786831455],[-149.04775559353888,61.87000282551942],[-149.04718510116766,61.869982838354595],[-149.0473555965287,61.868912753596206],[-149.0467851243825,61.86889276482753],[-149.0469130028332,61.86809020189977],[-149.04634254603795,61.86807021135372],[-149.04642780442228,61.867535169806104],[-149.04585735810466,61.86751517730942],[-149.04589999107085,61.867247656726335],[-149.0453295503581,61.86722766210539],[-149.04537218746435,61.86696014170731],[-149.04480175235648,61.86694014496219],[-149.04484439360255,61.86667262474901],[-149.04427396409952,61.86665262587975],[-149.0443166094853,61.866385105851606],[-149.04374618558705,61.86636510485829],[-149.04378883511234,61.866097585015076],[-149.0432184168189,61.86607758189776],[-149.0432610704835,61.865810062239554],[-149.0426906577948,61.8657900569982],[-149.0427333155986,61.865522537525024],[-149.04216290851454,61.86550253015966],[-149.04224823166746,61.864967491594655],[-149.04167783505972,61.864947482279135],[-149.0417205004086,61.86467996318731],[-149.04115010940532,61.86465995174788],[-149.04123544764732,61.864124913945496],[-149.04066506712,61.86410490055593],[-149.04126242092582,61.86035963963512],[-149.04183273326203,61.860379650593266],[-149.0419180480546,61.85984461315156],[-149.04248835138318,61.85986462146525],[-149.04253100281048,61.85959710258751],[-149.04310130200153,61.85961710843042],[-149.04327188090636,61.85854703233731],[-149.04270160119466,61.85852702718884],[-149.04287218785964,61.85745695196894],[-149.04230192835837,61.85743694521764],[-149.04238722703502,61.856901908021854],[-149.04181697800465,61.85688189932078],[-149.04185963111343,61.85661438091324],[-149.04128938768463,61.85659437008882],[-149.04137470144272,61.856059333654315],[-149.04080446848434,61.85603932088028],[-149.04093244823378,61.855236766832576],[-149.04036223061416,61.855216752282615],[-149.040490218376,61.8544141988557],[-149.03992001609436,61.85439418252982],[-149.04000534734246,61.8538591473145],[-149.0394351555299,61.85383912903922],[-149.03947782492313,61.85357161162188],[-149.03890763871138,61.85355159122357],[-149.03895031223988,61.8532840739908],[-149.03838013162888,61.85326405146948],[-149.03842280929254,61.852996534421536],[-149.03785263428225,61.85297650977728],[-149.03789531608086,61.852708992914046],[-149.03732514667126,61.85268896614686],[-149.0373678326047,61.85242144946833],[-149.0367976687957,61.85240142057824],[-149.03696842467008,61.851331354669036],[-149.0375385690092,61.851351382864145],[-149.03775197302542,61.8500137998559],[-149.0371818530218,61.84999377252945],[-149.03726721923232,61.849458739750204],[-149.0366971096951,61.84943871047469],[-149.03695321993843,61.84783361344132],[-149.03638314033273,61.8478135829118],[-149.03655388530302,61.84674351913548],[-149.03712394544462,61.84676354897003],[-149.03720930380138,61.846228516799634],[-149.0377793549441,61.84624854399067],[-149.0378647006389,61.84571351151629],[-149.0384347427829,61.84573353606385],[-149.03847740966592,61.84546601966925],[-149.03904744767686,61.84548604174705],[-149.039090108962,61.84521852518969],[-149.03966014283986,61.84523854479774],[-149.0397027985272,61.84497102807762],[-149.0402728282719,61.84499104521605],[-149.04031547836166,61.84472352833309],[-149.0408855039732,61.844743543001925],[-149.04097079222586,61.84420850892139],[-149.04154080883896,61.84422852094712],[-149.0415834470021,61.843961003749556],[-149.042153459482,61.84398101330571],[-149.0421960920482,61.84371349594544],[-149.04276610039483,61.84373350303221],[-149.0428939791077,61.84293095049566],[-149.04232398535578,61.842910943929496],[-149.04236661499476,61.84264342661238],[-149.04179662683933,61.84262341792374],[-149.0418392606112,61.84235590079098],[-149.04126927805223,61.842335889979914],[-149.04131191595684,61.84206837303149],[-149.0407419389943,61.84204836009804],[-149.04082722233667,61.84151332658037],[-149.0402572558349,61.84149331169821],[-149.04029990127245,61.8412257951291],[-149.03972994036687,61.84120577812472],[-149.0397725899366,61.840938261739794],[-149.03920263462723,61.84091824261324],[-149.0392879412986,61.84038321022279],[-149.03871799644935,61.84036318914762],[-149.03880330991998,61.83982815714722],[-149.03823337553055,61.83980813412357],[-149.03831869579992,61.83927310251309],[-149.03774877186999,61.83925307754096],[-149.03779143576986,61.83898556192534],[-149.03722151743568,61.83896553483131],[-149.0373495193319,61.83816298856937],[-149.03677961631996,61.8381429597006],[-149.03690762621486,61.83734041405533],[-149.0363377385244,61.83732038341191],[-149.03667910492487,61.835180263547244],[-149.0361092568673,61.83516023199763],[-149.036194600869,61.83462520248447],[-149.035624763268,61.834605168986876],[-149.0357527883643,61.83380262531727],[-149.03518296608138,61.83378259004542],[-149.03526832220743,61.833247561332264],[-149.03469851038025,61.83322752411261],[-149.03478387329994,61.83269249578886],[-149.03421407192818,61.832672456621395],[-149.03425675715079,61.8324049426489],[-149.0336869613729,61.83238490136002],[-149.03377233934322,61.831849873793985],[-149.03320255402028,61.83182983055748],[-149.0333733206149,61.83075977624578],[-149.033943086494,61.830779818787505],[-149.03402845567473,61.830244791346956],[-149.03459821256476,61.83026483124636],[-149.0346835690948,61.829729803500165],[-149.03525331699595,61.82974984075731],[-149.0354666712051,61.82841227070598],[-149.03603639553688,61.82843230480017],[-149.0361217223757,61.8278972765052],[-149.03669143771936,61.827917307957414],[-149.0367767519105,61.82738227935685],[-149.0373464582662,61.82740230816709],[-149.03738910940422,61.82713479370881],[-149.0379588116319,61.8271548200508],[-149.03800145717844,61.82688730542935],[-149.03857115527808,61.82690732930308],[-149.0386137952333,61.82663981451853],[-149.03918348920482,61.82665983592406],[-149.0392261235689,61.82639232097633],[-149.0397958134123,61.82641233991376],[-149.0398384421854,61.82614482480296],[-149.0404081279006,61.82616484127225],[-149.04045075108291,61.82589732599831],[-149.04102043266988,61.82591733999958],[-149.04110566712205,61.82538230913602],[-149.0405359952538,61.825362295481575],[-149.04062123649982,61.824827265006235],[-149.04005157508112,61.824807249404174],[-149.0401368231205,61.824272219316995],[-149.03956717215104,61.824252201767166],[-149.03995079586204,61.82184456844545],[-149.03938118935056,61.82182455016218],[-149.03946644073733,61.821289520994824],[-149.03889684467316,61.821269500764046],[-149.038982102851,61.82073447198458],[-149.0384125172338,61.82071444980642],[-149.03845515008365,61.820446935605496],[-149.03788557005544,61.82042691130642],[-149.03801347879002,61.81962436928526],[-149.0374439140658,61.819604343212546],[-149.03761446823594,61.818534288020665],[-149.03704492367206,61.81851426034776],[-149.03717284619162,61.817711719581],[-149.03774237618467,61.81773174673352],[-149.03778501070505,61.817464232991426],[-149.03835453657257,61.817484257676526],[-149.038397165505,61.81721674377106],[-149.03953620971993,61.81725678591231],[-149.03957882820788,61.81698927167017],[-149.04014834655518,61.81700928912648],[-149.0401909594556,61.81674177472109],[-149.04132998862946,61.81678180240498],[-149.0413725910859,61.81651428766297],[-149.0419421019123,61.81653429789064],[-149.0419846987816,61.81626678298557],[-149.04255420548208,61.81628679074595],[-149.04272456622834,61.81521673053342],[-149.04329405423405,61.815236735306875],[-149.04333663773838,61.81496922010579],[-149.04390612161828,61.814989222412024],[-149.04394869953626,61.81472170704775],[-149.04451817929026,61.81474170688702],[-149.0447310336483,61.813404129351134],[-149.04530048985322,61.81342412603064],[-149.04534305367903,61.81315661038046],[-149.04591250575825,61.81317660459305],[-149.0459550639986,61.81290908877981],[-149.04652451195213,61.812929080525485],[-149.04660961653246,61.81239404858304],[-149.04604017828984,61.81237405718361],[-149.04608273434073,61.812106541400546],[-149.04494386975549,61.812066552067016],[-149.04498643478703,61.81179903664033],[-149.04441700844444,61.81177903870626],[-149.04445957760115,61.81151152346274],[-149.04389015684364,61.81149152340828],[-149.04393273012536,61.81122400834798],[-149.04336331495287,61.811204006173085],[-149.04340589235943,61.810936491296054],[-149.04283648277195,61.81091648700082],[-149.04287906430315,61.81064897230698],[-149.04230966030067,61.81062896589145],[-149.04235224595638,61.8103614513808],[-149.0417828475388,61.81034144284497],[-149.04191061468813,61.80953889989276],[-149.04134123156433,61.80951888958331],[-149.04142641572108,61.80898386134478],[-149.04085704303617,61.80896384908843],[-149.04089963887316,61.80869633515741],[-149.04033027177275,61.808676320780854],[-149.04037287173344,61.80840880703308],[-149.0398035102175,61.80838879053661],[-149.03988871765537,61.807853763417235],[-149.03875001623055,61.807813724237604],[-149.03879262856125,61.80754621103946],[-149.0382232837985,61.807526188183],[-149.03826590025218,61.80725867516816],[-149.03712722262608,61.80721862292227],[-149.03716984805612,61.806951110263995],[-149.0360311830604,61.806911049191996],[-149.03624434778078,61.80557348778275],[-149.03681365564702,61.8055935185983],[-149.0368562815453,61.80532600617257],[-149.03856419496967,61.80538608434029],[-149.03860680557835,61.8051185714042],[-149.0403147110188,61.805178628413906],[-149.0403573063382,61.804911114967865],[-149.04149590391083,61.80495114116226],[-149.04153848879423,61.804683627379426],[-149.0426770795815,61.80472364405511],[-149.04271965402916,61.80445612993577],[-149.04328894566484,61.80447613466073],[-149.0433315145298,61.80420862037801],[-149.04390080204254,61.804228622636785],[-149.043943365325,61.8039611081907],[-149.0450819328341,61.80400110548285],[-149.0451244856815,61.803733590700375],[-149.04569376567773,61.80375358573375],[-149.045736312943,61.80348607078805],[-149.04630558881607,61.80350606335539],[-149.04634813049938,61.803238548246426],[-149.04691740224922,61.80325853834771],[-149.04695993835074,61.80299102307551],[-149.04752920597733,61.80301101071072],[-149.0475717364972,61.802743495275315],[-149.04814100000047,61.802763480444575],[-149.0481835249389,61.80249596484601],[-149.04875278431888,61.80251594754923],[-149.04879530367597,61.802248431787646],[-149.04936455893255,61.80226841202493],[-149.04940707270853,61.80200089610004],[-149.05111482829423,61.80206082253581],[-149.05119982454693,61.80152578967806],[-149.05176906816172,61.801545760225075],[-149.0518115603432,61.80127824363802],[-149.0523807998344,61.80129821171922],[-149.05246577230818,61.80076317822902],[-149.0530350028238,61.80078314367175],[-149.05307748311637,61.80051562676841],[-149.05364670950834,61.80053558974555],[-149.05368918422093,61.80026807267929],[-149.05425840648928,61.8002880331907],[-149.054300875622,61.80002051596149],[-149.05487009376665,61.8000404740074],[-149.05491255731974,61.79977295661518],[-149.05548177134062,61.79979291219554],[-149.05552422931422,61.799525394640426],[-149.05609343921134,61.79954534775533],[-149.0561358916056,61.799277830037255],[-149.0572743038798,61.79931772904338],[-149.05731674584342,61.79905021098973],[-149.0578859482204,61.79907015688099],[-149.05792838460508,61.79880263866456],[-149.05849758285805,61.79882258209038],[-149.05854001366396,61.79855506371121],[-149.0591092077929,61.79857500467169],[-149.0591516330202,61.79830748612965],[-149.0597208230251,61.79832742462492],[-149.06006015985758,61.79618727525882],[-149.0594910086602,61.79616733814404],[-149.05953342734318,61.79589981968953],[-149.0589642817234,61.795879880454684],[-149.0590067045298,61.79561236218254],[-149.05843756448758,61.795592420827724],[-149.05852241761968,61.7950573846577],[-149.0579532880053,61.79503744135557],[-149.05799571833074,61.794769923457615],[-149.0574265942938,61.794749978035625],[-149.05751146246314,61.79421494261393],[-149.0569423488535,61.79419499524472],[-149.05698478669717,61.793927477721],[-149.05641567866476,61.7939075282321],[-149.05645812063088,61.79364001089061],[-149.0558890181757,61.79362005928199],[-149.05597390962507,61.79308502497324],[-149.05540481759664,61.793065071417615],[-149.05570194870083,61.79119245284837],[-149.0562710067844,61.79121240519547],[-149.05631344632633,61.7909448881228],[-149.0557443930917,61.79092493594829],[-149.05578683675517,61.790657419057695],[-149.05521778909676,61.79063746476361],[-149.0553451302692,61.78983491466732],[-149.05477609788414,61.78981495859917],[-149.05486099805904,61.7892799255945],[-149.0542919760983,61.789259967579625],[-149.05433442994294,61.78899245126426],[-149.05376541355804,61.78897249113015],[-149.05380787152333,61.78870497499694],[-149.0532388607142,61.78868501274352],[-149.05328132280005,61.788417496792576],[-149.05271231756663,61.788397532419786],[-149.05275478377288,61.78813001665114],[-149.05218578411512,61.7881100501592],[-149.05244059515817,61.78650495678192],[-149.05300956572975,61.78652492223761],[-149.05313694688573,61.78572237515835],[-149.05370590364282,61.78574233780404],[-149.0537908110816,61.78520730611975],[-149.0543597588718,61.7852272661284],[-149.05440220665307,61.78495975012773],[-149.05497115032352,61.78497970767206],[-149.0550135925305,61.78471219150818],[-149.0555825320812,61.784732146588226],[-149.05562496871408,61.78446463026106],[-149.05676284030284,61.78450453320098],[-149.0568052665149,61.78423701653814],[-149.0579431313176,61.7842769099663],[-149.05798554710913,61.784009392967896],[-149.0591234051251,61.78404927688444],[-149.05916581049638,61.78378175955035],[-149.05973473574744,61.783801697898724],[-149.0597771355455,61.783534180401666],[-149.0603460566763,61.78355411628597],[-149.06047323717212,61.78275156333371],[-149.0610421444895,61.7827714964092],[-149.06125407322543,61.781433907481244],[-149.06182295703766,61.78145383740325],[-149.0619924675723,61.78038376573999],[-149.06256133272691,61.78040369268119],[-149.06264607394698,61.77986865656102],[-149.0632149301361,61.77988858086619],[-149.06329965876165,61.779353544438635],[-149.06386850598543,61.77937346610787],[-149.0639532220173,61.778838429373096],[-149.06452206027592,61.77885834840657],[-149.06464911434605,61.778055792857366],[-149.06521793879455,61.77807570908292],[-149.06530262819052,61.77754067175216],[-149.06587144367435,61.77756058534199],[-149.0660831302471,61.776222991316615],[-149.0666519222324,61.7762429017544],[-149.06669425252682,61.77597538280501],[-149.06726304039267,61.77599529077948],[-149.06734768911747,61.775460252564145],[-149.06791646801943,61.775480157903324],[-149.06795878645005,61.77521263863753],[-149.0685275612326,61.7752325415135],[-149.06856987409412,61.77496502208478],[-149.06970741614492,61.77500482061973],[-149.0697497185933,61.774737300856046],[-149.0703184858614,61.774757196515004],[-149.07036078274106,61.774489676588544],[-149.07092954588953,61.77450956978447],[-149.07101412778735,61.77397452961528],[-149.07044537432697,61.77395463676336],[-149.07061454880562,61.77288455722367],[-149.07004581544476,61.77286466276891],[-149.07017270322825,61.772062103726725],[-149.0696039851222,61.77204220749703],[-149.06968858304242,61.77150716852556],[-149.06911987534733,61.77148727034912],[-149.06916217806386,61.77121975104917],[-149.06859347593638,61.77119985075401],[-149.06863578277145,61.77093233163507],[-149.06806708621153,61.770912429221305],[-149.06815170739372,61.77037739135515],[-149.0675830212442,61.77035748699479],[-149.06766764921332,61.7698224495092],[-149.06823632567747,61.76984235352553],[-149.0682786337325,61.769574834624336],[-149.06884730607865,61.769594736178],[-149.06897421136915,61.76879217901297],[-149.06840555355026,61.76877227797551],[-149.06857476983106,61.76770220257086],[-149.0691434082814,61.76772210292022],[-149.06918570569857,61.76745458391975],[-149.06975434003132,61.76747448180671],[-149.0697966318823,61.767206962643186],[-149.07036526209737,61.767226858067765],[-149.07040754838232,61.7669593387414],[-149.07097617447977,61.76697923170355],[-149.07101845519884,61.76671171221432],[-149.0721556998822,61.76675149092339],[-149.07219797019388,61.76648397109936],[-149.0739038281224,61.7665436214691],[-149.07394608318532,61.76627610113861],[-149.0756519331011,61.76633573037922],[-149.07569417291555,61.76606820954235],[-149.0785372463655,61.7661675449429],[-149.07857946124855,61.76590002325653],[-149.08199114419298,61.76601914912362],[-149.08203332930339,61.76575162641674],[-149.08260194081458,61.76577147253994],[-149.08272847728693,61.764968903958994],[-149.08329707499578,61.76498874727733],[-149.08342359044414,61.76418617826358],[-149.08399217435112,61.76420601877698],[-149.08407650469061,61.76367097247012],[-149.08464507963737,61.76369081035037],[-149.0846872388831,61.76342328703902],[-149.0852558097107,61.76344312245758],[-149.08529796339363,61.763175598983885],[-149.08586653010204,61.76319543194089],[-149.0859086782223,61.76292790830476],[-149.08704580412228,61.76296756700507],[-149.08708794183917,61.76270004303535],[-149.0882250609435,61.762739692232145],[-149.0882671882573,61.7624721679287],[-149.089972857801,61.76253162403345],[-149.09001496987125,61.76226409922534],[-149.09228918666076,61.76234334128374],[-149.09233127864698,61.76207581579987],[-149.0928998298056,61.76209562041784],[-149.09294191623042,61.76182809477181],[-149.0935104632689,61.761847896928494],[-149.0935525441325,61.76158037112037],[-149.09412108705087,61.761600170815676],[-149.0941631623534,61.7613326448455],[-149.09530024067007,61.76137223702363],[-149.0953423055711,61.76110471072035],[-149.0959108409693,61.76112450320309],[-149.0959529003097,61.76085697673786],[-149.09708996358538,61.76089655449091],[-149.09713201252484,61.760629027692715],[-149.0977005404022,61.76064881296311],[-149.09774258378135,61.76038128600291],[-149.09887963201479,61.760420849331474],[-149.09892166499353,61.76015332203847],[-149.09949018534945,61.760173100096644],[-149.09953221276825,61.75990557264176],[-149.10180628202568,61.759984661290254],[-149.10184828936409,61.75971713316102],[-149.1041223507679,61.75979618448502],[-149.10408036279065,61.76006371329745],[-149.10692297992136,61.760162476779044],[-149.10696494369677,61.75989494711331],[-149.1098075545873,61.759993652488845],[-149.1098494934423,61.759726121979185],[-149.1126920980819,61.75982476924925],[-149.11273401201694,61.759557237896246],[-149.1144395688915,61.75961639826545],[-149.11448146758778,61.75934886641036],[-149.11504998314038,61.75936858178281],[-149.11509187627894,61.759101049766464],[-149.11566038770846,61.75912076267846],[-149.11578604830024,61.758318166172806],[-149.11635454592627,61.75833787628383],[-149.1163964265159,61.75807034396311],[-149.11696492001892,61.75809005161378],[-149.11700679505157,61.75782251913183],[-149.11814377452825,61.757861927222706],[-149.11818563916412,61.75759439440932],[-149.11875412513766,61.75761409484943],[-149.11879598421692,61.75734656187491],[-149.11993294863407,61.75738595554488],[-149.11997479731707,61.75711842223903],[-149.12111175492032,61.75715780640874],[-149.12115359320737,61.756890272771706],[-149.12229054399612,61.75692964744126],[-149.12233237188738,61.75666211347305],[-149.13483891298992,61.7570946265431],[-149.1347971915775,61.75736216424838],[-149.1404821457266,61.75755839639019],[-149.14052381873657,61.75729085698943],[-149.14166080844998,61.75733007559776],[-149.141702471066,61.75706253586732],[-149.14227096215237,61.75708214156704],[-149.1423126192149,61.75681460167624],[-149.14288110617423,61.75683420491649],[-149.1429227576834,61.7565666648656],[-149.14349124051566,61.75658626564628],[-149.14353288647166,61.75631872543522],[-149.14296440847951,61.75629912482379],[-149.14300605856255,61.7560315847912],[-149.1424375861234,61.75601198205911],[-149.14252089383012,61.755476902360165],[-149.1419524317838,61.755457297676806],[-149.14236897592906,61.752781901422715],[-149.14293738958185,61.75280150441234],[-149.14302068017682,61.752266424931896],[-149.14358908486474,61.752286025293124],[-149.1436723629308,61.75175094551027],[-149.14424075865404,61.751770543243154],[-149.144324024192,61.75123546315797],[-149.1448924109507,61.7512550582626],[-149.14493403781225,61.75098751806429],[-149.14550242044498,61.751007110709985],[-149.14554404175564,61.75073957035151],[-149.14611242026243,61.75075916053844],[-149.1461540360223,61.750491620019694],[-149.14672241040302,61.750511207747785],[-149.14680563010936,61.74997612639891],[-149.14737399552587,61.749995711499125],[-149.14741559947257,61.74972817066905],[-149.14968904890623,61.749806487497096],[-149.14973063278845,61.74953894599956],[-149.15029899208838,61.74955851931365],[-149.15034057042078,61.74929097765608],[-149.1509089255943,61.74931054851148],[-149.15095049837706,61.7490430066939],[-149.15208720118272,61.74908214119802],[-149.15212876357802,61.74881459905156],[-149.15383380860783,61.74887328312921],[-149.15387535577807,61.74860574048483],[-149.15785378520073,61.74874258868366],[-149.15789529779445,61.74847504486622],[-149.16187372816734,61.74861177969648],[-149.16191520618483,61.748344234707055],[-149.16362024390992,61.748402800499555],[-149.16366170670355,61.74813525501341],[-149.1647983923928,61.748174287090144],[-149.16483984480092,61.747906741275955],[-149.1654081838719,61.747926253711476],[-149.16544963073264,61.747658707737806],[-149.1671546376879,61.74771723080182],[-149.16719606932577,61.74744968433175],[-149.16833273449936,61.74748868792334],[-149.16837415575253,61.74722114112539],[-149.17007914431633,61.74727962883624],[-149.1701205503473,61.747012081542266],[-149.1723938590024,61.74709003243062],[-149.17235247232276,61.74735758039792],[-149.17519414826833,61.7474549683358],[-149.17515278507025,61.74772251715332],[-149.18197293758934,61.74795601668762],[-149.18201424272976,61.74768846585326],[-149.18371928225753,61.74774678871724],[-149.1837605721764,61.74747923738829],[-149.18432891526098,61.74749867359588],[-149.18437019963497,61.74723112210817],[-149.18493853858803,61.747250555858294],[-149.18497981741734,61.74698300421195],[-149.18554815223882,61.747002435504704],[-149.1855894255236,61.74673488369956],[-149.18615775621348,61.74675431253501],[-149.1861990239539,61.74648676057123],[-149.18733567777653,61.74652561103786],[-149.18737693513484,61.74625805874766],[-149.1885135821062,61.74629689972066],[-149.18855482908265,61.7460293471042],[-149.1925330818503,61.7461652172162],[-149.19257429425588,61.745897663435336],[-149.19371093457747,61.745936462526515],[-149.19375213660194,61.74566890841978],[-149.19432045298268,61.74568830436364],[-149.19440284524063,61.74515319584251],[-149.1949711526509,61.745172589161825],[-149.19501234288464,61.744905034747504],[-149.1955806461622,61.744924425609916],[-149.19566301483974,61.74438931647376],[-149.1967996041591,61.74442809066038],[-149.1968407777657,61.74416053577118],[-149.19854565251708,61.74421867937833],[-149.198504493423,61.74448623476976],[-149.19964108978783,61.74452498606218],[-149.19968223920685,61.74425743033613],[-149.20081882871358,61.7442961721361],[-149.20085996775336,61.74402861608468],[-149.20090110608905,61.74376106004233],[-149.20146939222363,61.743780427173746],[-149.20151052501794,61.74351287097324],[-149.20207880701906,61.74353223564794],[-149.20216106082134,61.742997122940096],[-149.20272933385178,61.74301648499093],[-149.20281157516456,61.7424813719852],[-149.2033798392245,61.7425007314123],[-149.20346206804848,61.74196561810859],[-149.20403032313808,61.74198497491223],[-149.20415364658686,61.74118230452355],[-149.2047218878696,61.74120165853643],[-149.20484519047764,61.74039898772825],[-149.20541341795402,61.74041833895072],[-149.20549560650335,61.73988322478982],[-149.20606382501023,61.7399025733889],[-149.20610491339383,61.73963501615495],[-149.20553669972324,61.73961566772299],[-149.20561888405345,61.739080553616525],[-149.20505068075826,61.739061203229525],[-149.20517396648776,61.738258532638966],[-149.2046057784035,61.738239180464184],[-149.20497564114126,61.73583117068284],[-149.20554378570688,61.73585052135398],[-149.2057081315252,61.73478029434975],[-149.20627625745425,61.7347996420638],[-149.2063173373168,61.73453208516813],[-149.20688545911398,61.734551430426485],[-149.20692653343903,61.734283873372725],[-149.20749465110438,61.73430321617535],[-149.20753571989212,61.734035658963585],[-149.20810383342553,61.73405499931046],[-149.20814489667615,61.73378744194062],[-149.20871300607763,61.733806779831895],[-149.20879512080245,61.733271664785185],[-149.2093632212376,61.733291000053946],[-149.20940427271208,61.73302344237711],[-149.20997236901522,61.73304277519029],[-149.21001341495315,61.73277521735539],[-149.21058150712432,61.732794547713176],[-149.2106225475259,61.73252698972039],[-149.211190635565,61.73254631762255],[-149.21123167043035,61.73227875947193],[-149.21179975433742,61.73229808491872],[-149.21184078366673,61.732030526610124],[-149.21240886344165,61.732049849601545],[-149.21244988723507,61.73178229113495],[-149.21301796287787,61.73180161167102],[-149.21309999869152,61.73126649443124],[-149.21366806536832,61.73128581234516],[-149.2137090773888,61.731018253571904],[-149.21427713993347,61.73103756903056],[-149.21431814641863,61.73077001009948],[-149.21488620483112,61.73078932310294],[-149.21509120256758,61.72945152774718],[-149.21452316832247,61.729432215577155],[-149.2146461730476,61.728629538970004],[-149.21407815400323,61.7286102250117],[-149.21416016331233,61.72807510765119],[-149.21359215463522,61.72805579173804],[-149.21367417080415,61.72752067474626],[-149.21310617249395,61.727501356878115],[-149.21318819552218,61.72696624025508],[-149.21262020757857,61.726946920432134],[-149.21274325135667,61.72614424606357],[-149.2121752786116,61.72612492445274],[-149.2122162966334,61.72585736651414],[-149.21164832942202,61.72583804278189],[-149.21177139377374,61.72503536951897],[-149.21120344175995,61.72501604399893],[-149.21128549081646,61.72448092886749],[-149.21071754916778,61.72446160139297],[-149.21075857747513,61.72419404400708],[-149.2101906413598,61.7241747144113],[-149.21031373656584,61.7233720428064],[-149.2097458156465,61.72335271142306],[-149.20990995208786,61.72228248340527],[-149.20934205119477,61.72226315040126],[-149.20938308838151,61.721995593585305],[-149.20881519302117,61.72197625846027],[-149.2089793540728,61.72090603195009],[-149.20841147873696,61.72088669520465],[-149.20857564788048,61.719816469499754],[-149.2080077925678,61.71979713113388],[-149.20862339929474,61.715783788463646],[-149.2091911821644,61.71580312432727],[-149.20935529797757,61.71473289927163],[-149.2099230622337,61.714752232180864],[-149.21000510627408,61.71421711937039],[-149.21057286157458,61.71423644965879],[-149.21061387771425,61.71396889309962],[-149.2111816288876,61.71398822093406],[-149.2112226394976,61.71372066421651],[-149.21235813429107,61.71375931269038],[-149.2123991345433,61.71349175564798],[-149.2135346224842,61.713530394639605],[-149.2135756123789,61.71326283727232],[-149.21527883506144,61.71332077810581],[-149.21531980977062,61.71305322024733],[-149.2170230242736,61.7131111399962],[-149.21706398379763,61.712843581646624],[-149.21990266449993,61.71294006798488],[-149.21994359918273,61.712672508811536],[-149.22164680151872,61.71273037266892],[-149.2216877210171,61.712462813005],[-149.22225545170025,61.71248209621669],[-149.22229636567093,61.712214536394995],[-149.22286409222545,61.712233817153255],[-149.2229050006685,61.711966257173636],[-149.2234727230944,61.71198553547843],[-149.22351362601006,61.7117179753411],[-149.2246490633037,61.71175652475662],[-149.2246899558641,61.711488964295256],[-149.22639310256403,61.71154677076641],[-149.2264339799416,61.711279209815046],[-149.22700169207818,61.711298473898296],[-149.227042563929,61.71103091278918],[-149.22817798064264,61.711069433762106],[-149.22821884213909,61.71080187232931],[-149.228786546716,61.710821129219006],[-149.2288274026861,61.71055356762852],[-149.23109820866696,61.71063057165229],[-149.23117987989025,61.71009544716857],[-149.23174757347562,61.71011469212475],[-149.23178840321248,61.70984712972962],[-149.23349147367367,61.70990485037816],[-149.23353228822984,61.70963728749369],[-149.23409997495165,61.709656522969844],[-149.23414078398253,61.70938895992798],[-149.2347084665745,61.709408192951216],[-149.23466766237112,61.70967575615895],[-149.2352353504882,61.709694987061],[-149.23519455041486,61.70996255044306],[-149.23576224405713,61.7099817792239],[-149.235721448114,61.71024934278023],[-149.23628914728144,61.710268569439734],[-149.2362075629584,61.7108036969096],[-149.23677527247904,61.71082292161361],[-149.2367344840994,61.71109048552713],[-149.2373021991454,61.71110970810985],[-149.23726141489647,61.71137727219761],[-149.23782913546788,61.71139649265889],[-149.23778835534986,61.71166405692101],[-149.2383560814467,61.7116832752608],[-149.2382745287757,61.71221840414201],[-149.2388422652264,61.7122376205262],[-149.23876071942368,61.71277274977316],[-149.23932846622859,61.71279196420146],[-149.23920615678207,61.71359465863331],[-149.23977391877037,61.71361387127144],[-149.23957007989577,61.71495169632519],[-149.24013786672663,61.7149709075045],[-149.23985249682968,61.716843864102344],[-149.24042031816495,61.71686307415401],[-149.2403795530782,61.717130639582656],[-149.2409473799405,61.71714984751255],[-149.2409066189867,61.71741741311556],[-149.24147445137612,61.71743661892348],[-149.24143369455547,61.71770418470082],[-149.24200153247196,61.71772338838675],[-149.24196077978456,61.7179909543386],[-149.24252862322822,61.718010155902405],[-149.24216186115447,61.72041825135231],[-149.24272974877118,61.72043745211932],[-149.24268899877603,61.72070501848984],[-149.24325689192074,61.72072421713459],[-149.24321614605986,61.720991783679644],[-149.24435194410222,61.721030174436684],[-149.2443112072071,61.72129774132169],[-149.24487911210468,61.721316933433975],[-149.24483837934426,61.7215845004934],[-149.24597420089216,61.72162287818513],[-149.2459334770981,61.72189044558447],[-149.24706931109512,61.72192881445533],[-149.24702859626785,61.72219638219461],[-149.24759651914258,61.72221556336359],[-149.2475558084507,61.722483131277166],[-149.24982752623868,61.72255983373422],[-149.24978683417802,61.72282740231852],[-149.25035477019708,61.722846572378074],[-149.2503140822724,61.72311414113675],[-149.2508820238194,61.72313330907347],[-149.25084134003095,61.72340087800643],[-149.25140928710587,61.72342004382051],[-149.25136860745374,61.7236876129277],[-149.2519365600567,61.723706776618926],[-149.25189588454106,61.72397434590043],[-149.25246384267203,61.72399350746889],[-149.25238249921844,61.724528646389274],[-149.25295046771,61.72454780600017],[-149.2528691311389,61.72508294528693],[-149.25343710999132,61.72510210294029],[-149.25335578030328,61.7256372425935],[-149.25392376951692,61.72565639828921],[-149.25388310846245,61.725923968294566],[-149.25445110320456,61.725943121867196],[-149.25436978867523,61.726478262235354],[-149.254937793779,61.72649741385022],[-149.2548971403043,61.72676498421306],[-149.25546515093671,61.72678413370492],[-149.25542450159998,61.727051704242015],[-149.25599251776106,61.7270708516106],[-149.25595187256235,61.72733842232192],[-149.25651989425216,61.727357567567324],[-149.25647925319169,61.72762513845299],[-149.25761530832398,61.72766342240875],[-149.25757467623555,61.72793099363384],[-149.258142709678,61.727950132344176],[-149.25810208172823,61.728217703743496],[-149.2586701206994,61.728236840330496],[-149.2586294968885,61.72850441190401],[-149.2591975413885,61.72852354636768],[-149.25915692171654,61.72879111811531],[-149.26029302246897,61.7288293805072],[-149.26025241177024,61.729096952594105],[-149.26082046802264,61.72911608052235],[-149.26077986146333,61.72938365278348],[-149.26191598572046,61.7294219021041],[-149.261875388135,61.72968947470452],[-149.26357959423234,61.72974683201563],[-149.2635390104555,61.73001440512026],[-149.26410708537773,61.73003351981154],[-149.26406650574108,61.73030109309029],[-149.2652026673372,61.730339315936796],[-149.26512152531984,61.73087446318156],[-149.26568961682844,61.73089357150162],[-149.26564904961342,61.731161145302636],[-149.26678524438225,61.7311993554063],[-149.26674468614303,61.731466929546364],[-149.26731278940326,61.731486031329815],[-149.26727223530514,61.73175360564392],[-149.26784034409428,61.73177270530352],[-149.26779979413743,61.73204027979162],[-149.26836790845545,61.73205937732727],[-149.2683273626401,61.73232695198946],[-149.26889548248704,61.73234604740103],[-149.26885494081327,61.73261362223728],[-149.26942306618918,61.73263271552471],[-149.2693825286572,61.732900290534964],[-149.27051879116058,61.732938470572876],[-149.27047826260608,61.73320604592194],[-149.27104639973348,61.73322513267224],[-149.27100587532118,61.73349270819534],[-149.2715740179776,61.73351179282144],[-149.27153349770768,61.733779368518526],[-149.27210164589317,61.733798451020384],[-149.27206112976575,61.73406602689145],[-149.27262928348034,61.734085107268896],[-149.27258877149563,61.73435268331404],[-149.2731569307393,61.734371761567196],[-149.2731164228975,61.734639337786305],[-149.27368458767035,61.734658413915106],[-149.2736440839715,61.73492599030815],[-149.27478042526857,61.73496413602791],[-149.2747399305492,61.73523171275959],[-149.2758762842904,61.73526984965209],[-149.27583579855084,61.735537426722274],[-149.27810853369115,61.735613673695944],[-149.27814900008502,61.735346095967444],[-149.27871718076494,61.735365151823416],[-149.27875764163,61.73509757393973],[-149.27989399539388,61.735135678455116],[-149.27993444589399,61.734868100251795],[-149.28050261897786,61.734887148911334],[-149.28054306394955,61.734619570552766],[-149.2811112328892,61.73463861675876],[-149.2811516723326,61.73437103824507],[-149.28171983712798,61.73439008199756],[-149.28176027104334,61.7341225033288],[-149.2828965930372,61.734160583637575],[-149.28293701658856,61.73389300464939],[-149.28407333167684,61.73393107547314],[-149.28411374486447,61.73366349616556],[-149.28525005304655,61.73370155750433],[-149.28529045587072,61.73343397787752],[-149.28699490882033,61.73349105222498],[-149.28703529644534,61.733223472114716],[-149.2881715921951,61.73326150990597],[-149.28821196945725,61.73299392947672],[-149.28934825829856,61.73303195778344],[-149.2893886251981,61.73276437703508],[-149.2905249071303,61.73280239585743],[-149.29056526366756,61.7325348147903],[-149.2922696772368,61.73259182536392],[-149.29231001857616,61.7323242438139],[-149.29287815297735,61.73234324259641],[-149.2928378164738,61.732610824310456],[-149.29454223832542,61.73266780741569],[-149.29450191563956,61.73293538963101],[-149.29620635820837,61.73299235262675],[-149.29616604934077,61.733259935343156],[-149.2984386684322,61.733335854612456],[-149.29839837821982,61.73360343799368],[-149.30067102768635,61.73367932129235],[-149.3006307561301,61.7339469053381],[-149.30176709467088,61.73398483357997],[-149.30168656883728,61.73452000235458],[-149.30225474881422,61.73453896336917],[-149.30221448970073,61.73480654793428],[-149.30278267520328,61.73482550682329],[-149.3026619082399,61.73562826106627],[-149.303230108942,61.735647218157084],[-149.30274703713687,61.73885823794554],[-149.30217877838467,61.73883927889034],[-149.30201771305087,61.739909618469355],[-149.30144943563516,61.73989065646972],[-149.30124806426957,61.74122858033965],[-149.30067976335053,61.74120961523143],[-149.3005186344951,61.74227995384465],[-149.3010869547696,61.74229891960796],[-149.30104667567122,61.742566504449094],[-149.30161500147418,61.742585468086475],[-149.30157472652556,61.74285305310094],[-149.314078174909,61.74326967739259],[-149.31411834339133,61.74300208877979],[-149.3186650957268,61.74315331242816],[-149.31862496596165,61.743420902347026],[-149.319193317935,61.74343979516165],[-149.31915319232274,61.743707385253416],[-149.31972154982273,61.74372627594117],[-149.31968142836357,61.743993866205926]]]},"id":"globalwatershed","properties":{}}],"bbox":[-149.31972154982273,61.70938895992798,-149.03320255402028,61.881510188742865]}